stop_name,lat,lon,Zip_Codes
Rio Grande/15th,30.278965999999997,-97.746339,78701
8740 Lamar/Payton Gin,30.356809000000002,-97.701066,78753
Fairfield Station (SB),30.355296000000003,-97.703128,78753
Lamar/Thurmond,30.353139000000002,-97.706082,78753
8320 Lamar/Meadowlark,30.352256,-97.707295,78753
7720 Lamar/Stobaugh,30.346044,-97.713966,78757
7520 Lamar/Morrow,30.343163,-97.715653,78752
6814 Lamar/Justin,30.336204,-97.72000600000001,78757
6600 Lamar/Brentwood,30.334109,-97.721322,78757
6200 Lamar/Denson,30.330425,-97.723636,78752
5528 Lamar/Koenig,30.324246999999996,-97.727528,78751
5106 Lamar/51st,30.319051,-97.730805,78751
Triangle Station (SB),30.314629999999998,-97.732523,78751
4500 Guadalupe/45th,30.311163,-97.732958,78751
Guadalupe/43rd Street,30.308831,-97.73439499999999,78751
Guadalupe/41st Street,30.306703000000002,-97.73575600000001,78751
Guadalupe/Maiden,30.301674,-97.73895999999999,78705
Guadalupe/34th Street,30.300456,-97.73970899999999,78705
Guadalupe/27th Street,30.292196999999998,-97.74131,78705
UT West Mall Station (SB),30.286064,-97.741815,78705
Guadalupe/W. 21st Street,30.283384,-97.742081,78705
Guadalupe/16th Street,30.278962,-97.742708,78701
11th/Congress,30.2727,-97.741376,78701
612 Congress/Riverside,30.255384999999997,-97.747685,78704
2020 Congress/Crockett,30.243058,-97.752263,78704
2300 Congress/College,30.240333000000003,-97.752905,78704
2622 Congress/Cumberland,30.235695,-97.756374,78704
2918 Congress/La Vista,30.232590000000002,-97.75853000000001,78704
Congress/Pickle,30.226896000000004,-97.761935,78704
4210 Congress/Radam,30.220763,-97.765411,78745
4722 Congress/Sheraton,30.214747999999997,-97.76923199999999,78745
5300 Congress/Ramble,30.208685,-97.773108,78745
6220 Congress/North Bluff,30.199040999999998,-97.776595,78745
115 William Cannon/Circle S,30.192664,-97.77784100000001,78745
409 William Cannon/Circle S,30.192082,-97.776037,78745
601 William Cannon/Circle S,30.191387,-97.77353000000001,78745
Nelms/Bluff Springs,30.192738000000002,-97.765327,78744
Bluff Springs/William Cannon,30.189427000000002,-97.76787900000001,78744
412 William Cannon/North Bluff,30.191772999999998,-97.774139,78745
110 William Cannon/Circle S,30.192971000000004,-97.777955,78745
6319 Congress/Circle S,30.197391999999997,-97.77690799999999,78745
Little Texas Station (NB),30.202145,-97.775515,78745
5405 Congress/Mockingbird,30.207107,-97.773733,78745
Congress/Alpine,30.228247999999997,-97.76094300000001,78704
2705 Congress/Cumberland,30.235346999999997,-97.75633,78704
2203 Congress/Live Oak,30.241689,-97.752423,78704
1901 Congress/Mary,30.245024,-97.751212,78704
Congress/The Circle,30.251531,-97.748789,78704
611 Congress/Academy,30.255340000000004,-97.74739,78704
Lavaca/12th,30.274408,-97.742995,78701
Capitol Station (NB),30.275586999999998,-97.742558,78701
Lavaca/15th,30.277383,-97.74189399999999,78701
Guadalupe/Dean Keeton,30.289566999999998,-97.741302,78705
31st Street Station (NB),30.297781,-97.741153,78705
Guadalupe/34th,30.300639,-97.739393,78705
Guadalupe/38th,30.302526,-97.738152,78705
Hyde Park Station (NB),30.304418,-97.73695,78751
Guadalupe/41st,30.306234000000003,-97.735787,78751
Guadalupe/43rd,30.3085,-97.73434,78751
4413 Guadalupe/45th,30.31073,-97.73293000000001,78751
Triangle Station (NB),30.314815999999997,-97.732264,78751
5007 Lamar/51st,30.318410999999998,-97.730947,78751
North Loop East Station (NB),30.321319,-97.729097,78751
5419 Lamar/Nelray,30.322779999999998,-97.72819,78751
5555 Lamar/Nelray,30.324085999999998,-97.727368,78751
6201 Lamar/Denson,30.330181,-97.72353299999999,78752
6541 Lamar/Brentwood,30.33387,-97.72121,78752
7240 Lamar/St Johns,30.339956,-97.71769,78752
7545 Lamar/Morrow,30.34385,-97.71491999999999,78752
8071 Lamar/Research,30.348283000000002,-97.711558,78753
8415 Lamar/Thurmond,30.353121,-97.70573,78753
8745 Lamar/Deen,30.356405,-97.70124,78753
8911 Lamar/Carpenter,30.358138,-97.699627,78753
3200 Oak Springs/Airport,30.273609999999998,-97.69835,78721
Oak Springs/Ridgeway,30.272555999999998,-97.70456800000001,78702
2420 Rosewood/Bedford,30.272319,-97.70829599999999,78702
2370 Rosewood/Hargrave,30.271236,-97.710649,78702
Rosewood/San Bernard,30.268756,-97.725507,78702
907 11th/Branch,30.269859999999998,-97.731241,78702
11th/Waller,30.269271000000003,-97.729681,78702
1213 Rosewood/San Bernard,30.26853,-97.726049,78702
1319 Rosewood/Angelina,30.26878,-97.72446,78702
1909 Rosewood/Chicon,30.269696000000003,-97.718601,78702
Rosewood/Northwestern,30.27,-97.71674,78702
2365 Rosewood/Hargrave,30.270988,-97.71088,78702
Rosewood/Webberville,30.272357,-97.70514399999999,78702
2807 Oak Springs/Webberville,30.272787,-97.702321,78702
3201 Oak Springs/Airport,30.273484000000003,-97.698127,78721
Oak Springs/Springdale,30.273534,-97.691296,78721
Northcross Transfer Center,30.353609999999996,-97.73592,78757
7500 Burnet/Richcreek,30.350659999999998,-97.734362,78757
Burnet/Twin Oaks Dr.,30.342693,-97.738671,78757
North Loop Station (SB),30.324999,-97.739681,78756
Burnet/Hancock,30.322213,-97.739436,78756
Burnet/W. 49th,30.320333,-97.739313,78756
Burnet/W. 47th,30.318126,-97.739952,78756
Burnet/W. 45th,30.315528000000004,-97.741621,78756
4214 Medical Parkway/43rd,30.312473999999998,-97.74237099999999,78756
4112 Medical Parkway/42nd,30.310901,-97.742667,78756
Medical Pkwy/W. 40th,30.308566,-97.742745,78756
3120 Lamar/32nd,30.301236,-97.74574,78705
800 Cesar Chavez/West,30.265741,-97.75240600000001,78701
B R Reynolds/Lamar,30.267402,-97.756576,78703
1414 Lamar/Cinco,30.252465,-97.764114,78704
2806 Menchaca/Lightsey,30.243035,-97.781628,78704
3204 Menchaca/Glen Allen,30.240345,-97.78224200000001,78704
3624 Menchaca/Larchmont,30.237452,-97.783568,78704
3906 Menchaca/Prather,30.233969000000002,-97.785765,78704
4308 Menchaca/Ben White,30.230503999999996,-97.788112,78704
4430 Menchaca/Redd,30.228464000000002,-97.78938000000001,78745
4616 Menchaca/Forest Hill,30.225990999999997,-97.79091600000001,78745
4804 Menchaca/Frontier,30.223743,-97.79234699999999,78745
5000 Menchaca/Jones,30.220975,-97.794067,78745
5322 Menchaca/Inverness,30.217803000000004,-97.79599499999999,78745
5532 Menchaca/Stassney,30.216058,-97.797163,78745
5720 Menchaca/Whitestone,30.214391,-97.79951899999999,78745
6212 Menchaca/Berkett,30.210671,-97.803629,78745
6372 Menchaca/Berkeley,30.208952000000004,-97.804711,78745
6514 Menchaca/Miles,30.207078000000003,-97.80593,78745
Menchaca/William Cannon SW Corner,30.202030999999998,-97.807163,78745
Menchaca/William Cannon SE Corner,30.202687,-97.806816,78745
6601 Menchaca/Miles,30.206901000000002,-97.805837,78745
6305 Menchaca/Berkeley,30.209018,-97.804497,78745
6001 Menchaca/Independence,30.212809999999998,-97.80188299999999,78745
5701 Menchaca/Whitestone,30.214491,-97.798856,78745
5309 Menchaca/Fair Oaks,30.219059,-97.79499799999999,78745
4301 Menchaca/Fort View,30.230859999999996,-97.787599,78704
3909 Menchaca/Prather,30.234049,-97.785514,78704
3505 Menchaca/Larchmont,30.238295,-97.782915,78704
3201 Menchaca/Glen Allen,30.240512,-97.782084,78704
2639 Lamar/Dickson,30.245377,-97.77969300000001,78704
2401 Lamar/Bluebonnet,30.246752,-97.777395,78704
2201 Lamar/Kinney,30.247279,-97.77427800000001,78704
1417 Lamar/Cinco,30.252289,-97.763972,78704
Lamar Square Station (NB),30.254034000000004,-97.762592,78704
Barton Springs Station (NB),30.261634,-97.758053,78704
3105 Lamar/31st,30.30053,-97.745954,78705
3317 Lamar/34th,30.302553000000003,-97.744683,78705
38th/Medical Pkwy,30.305685999999998,-97.743879,78756
Medical Pkwy/41st,30.309731,-97.742576,78756
Medical Pkwy/44th,30.314054,-97.741916,78756
Burnet/45th,30.316,-97.741026,78756
Burnet/49th,30.320494,-97.739145,78756
5011 Burnet/Hancock,30.321765999999997,-97.739242,78756
North Loop Station (NB),30.326284,-97.739566,78756
Burnet/Houston,30.328765999999998,-97.739742,78756
Burnet/Adams,30.330446000000002,-97.739876,78756
5621 Burnet/Northland,30.332384,-97.739997,78756
Allandale Station (NB),30.3342,-97.7398,78756
6425 Burnet/Whitehorse,30.33997,-97.7389,78757
Justin Station (NB),30.345183000000002,-97.73755,78757
Burnet/Greenlawn Pkwy,30.348509999999997,-97.73545,78757
7439 Burnet/Richcreek,30.3504,-97.73424,78757
Northcross Station (NB),30.353858000000002,-97.73208100000001,78757
Northcross Mall,30.355782,-97.734268,78757
ACC Riverside Campus Stop,30.236201,-97.70484599999999,78741
Hogan/Community,30.236459000000004,-97.701552,78741
1214 Montopolis/Larch,30.232434,-97.698769,78741
2700 7th/Calles,30.260665000000003,-97.71152099999999,78702
2500 7th/Pedernales,30.260963,-97.71356,78702
11th/San Jacinto SW Corner,30.272,-97.73883599999999,78701
Trinity/12th,30.272709000000003,-97.73715,78701
Trinity/17th,30.277788,-97.735271,78701
1509 Martin Luther King/Comal,30.279073999999998,-97.724701,78702
1813 Martin Luther King/Chicon,30.279695,-97.721372,78702
2207 Martin Luther King/Ferdinand,30.28023,-97.718137,78702
2401 Martin Luther King/Maple,30.280586,-97.715949,78702
2615 Martin Luther King/Walnut,30.280972,-97.713458,78702
2915 Martin Luther King/Clifford,30.281869,-97.707799,78702
2945 Martin Luther King/Harvey,30.282207,-97.70565,78702
3431 Martin Luther King/Greenwood,30.283317999999998,-97.698197,78721
3601 Martin Luther King/EM Franklin,30.283699,-97.695712,78721
3815 Martin Luther King/Perez,30.284090999999997,-97.693161,78721
Martin Luther King/Springdale,30.285690000000002,-97.68292,78721
4600 Martin Luther King/Springdale,30.285994,-97.68224599999999,78723
3900 Martin Luther King/Perez,30.284342,-97.69295100000001,78723
3300 Martin Luther King/Tillery,30.283021999999995,-97.701544,78723
2700 Martin Luther King/Walnut,30.281129999999997,-97.713317,78722
2300 Martin Luther King/Chestnut,30.280549,-97.717136,78722
1900 Martin Luther King/Chicon,30.279877000000003,-97.721101,78722
1700 Martin Luther King/Leona,30.279502,-97.723095,78702
1498 Martin Luther King/Comal,30.279075,-97.725602,78722
San Jacinto/17th,30.278165,-97.736503,78701
San Jacinto/14th,30.275451,-97.737526,78701
San Jacinto/12th,30.273386,-97.73828,78701
San Jacinto/11th,30.272213,-97.738718,78701
IH-35/East 7th,30.266895,-97.735299,78701
7th/San Marcos,30.265971,-97.732268,78702
7th/Navasota,30.264583000000002,-97.728178,78702
Chicon/East 7th,30.262511,-97.722327,78702
7th/Robert T Martinez Jr,30.261532,-97.718195,78702
2425 7th/Pedernales,30.260851000000002,-97.713904,78702
2621 7th/Calles,30.260533000000002,-97.711831,78702
2789 7th/Pleasant Valley,30.260046000000003,-97.709625,78702
3223 7th/Allen,30.257758000000003,-97.704514,78702
3535 7th/Springdale,30.256025,-97.701819,78702
5021 7th/Shady,30.253396999999996,-97.697886,78702
618 Vargas/Ponca,30.235736,-97.692557,78741
6306 Riverside/Montopolis,30.224996,-97.703124,78741
6000 Riverside/Clubview,30.226585999999998,-97.706711,78741
1101 Grove (ACC Riverside),30.235008,-97.70417900000001,78741
2007 Anderson/Burnet,30.354471999999998,-97.727616,78757
Woodrow/Anderson,30.35245,-97.7234,78757
Woodrow/Princeton,30.349882,-97.723185,78757
Woodrow/Richcreek,30.346068,-97.724799,78757
7100 Woodrow/Piedmont,30.342980999999998,-97.725124,78757
7000 Woodrow/Cullen,30.341521999999998,-97.725904,78757
6800 Woodrow/Choquette,30.339208000000003,-97.727376,78757
6600 Woodrow/Brentwood,30.337479,-97.728461,78757
Woodrow/Payne,30.335922999999998,-97.729446,78757
Woodrow/Romeria,30.333637,-97.730682,78757
5900 Woodrow/Koenig,30.331024,-97.7316,78757
5626 Woodrow/Theckla,30.328865999999998,-97.732957,78756
5500 Woodrow/Houston,30.326461,-97.734505,78756
5300 Woodrow/North Loop,30.324296,-97.735849,78756
5200 Woodrow/North,30.322571000000003,-97.73695500000001,78756
1215 51st/Grover,30.320538,-97.735873,78756
1143 49th/Grover,30.318547,-97.736463,78756
909 45th/Lamar,30.31298,-97.736887,78751
507 45th/Guadalupe,30.310607,-97.732618,78751
301 45th/Avenue C,30.309534999999997,-97.73039200000001,78751
Speedway/45th,30.30835,-97.728674,78751
4300 Speedway/43rd,30.306696999999996,-97.729732,78751
4004 Speedway/40th,30.303497999999998,-97.731786,78751
3812 Speedway/38th Half,30.301379999999998,-97.733132,78751
3204 Speedway/33rd,30.29713,-97.735816,78705
Cesar Chavez/Brazos,30.262969000000002,-97.743365,78701
515 Cesar Chavez/Red River,30.261712,-97.73893199999999,78701
Riverside/Summit,30.245976000000002,-97.731836,78741
Riverside/Burton,30.240340999999997,-97.727308,78741
2237 Riverside/Willow Creek,30.238275,-97.726015,78741
2507 Riverside/Pleasant Valley,30.233867,-97.72376,78741
4411 Oltorf/Huntwick,30.226619,-97.72626,78741
2401 Wickersham/Oltorf,30.226039,-97.723488,78741
Wickersham/Cromwell,30.227021,-97.721847,78741
2207 Wickersham/Sheringham,30.229315000000003,-97.72135300000001,78741
4825 Riverside/Kirksey,30.231315999999996,-97.71704100000001,78741
5100 Riverside/Riverside Farms,30.230355,-97.714648,78741
5401 Riverside/Faro,30.229169,-97.712324,78741
5500 Riverside/Penick,30.228277000000002,-97.710766,78741
Ruiz Library,30.229539000000003,-97.706558,78741
Riverside/Faro,30.229833000000003,-97.712898,78741
4900 Riverside/Crossing Place,30.23136,-97.71637,78741
4823 Riverside/Crossing Place,30.231928000000003,-97.717861,78741
2100 Wickersham/Riverside,30.231526000000002,-97.720884,78741
Wickersham/Sheringham,30.229914,-97.72149300000001,78741
2300 Wickersham/Cromwell,30.227534000000002,-97.721731,78741
2440 Wickersham/Oltorf,30.226083000000003,-97.723784,78741
2433 Pleasant Valley/Oltorf,30.228028000000002,-97.727241,78741
2209 Pleasant Valley/Sheringham,30.231097,-97.72529899999999,78741
2426 Riverside/Pleasant Valley,30.235706,-97.72437,78741
Riverside/Willow Creek,30.238065000000002,-97.725635,78741
Riverside/Town Creek,30.24114,-97.727591,78741
Riverside/Shore District,30.242867999999998,-97.728889,78741
1600 Riverside/Summit,30.246505,-97.73196899999999,78741
400 Cesar Chavez/Trinity,30.262459999999997,-97.74084,78701
2231 Guadalupe/West Mall UT,30.285738000000002,-97.741618,78705
Speedway/35th,30.299217,-97.734341,78705
Speedway/39th,30.301591,-97.732825,78751
4301 Speedway/43rd,30.306615999999998,-97.72961600000001,78751
108 45th Street/Avenue D,30.309112,-97.729235,78751
408 45th Street/Avenue A,30.310425,-97.73187800000001,78751
636 45th/Guadalupe,30.31125,-97.733468,78751
918 45th/Lamar,30.313397,-97.737245,78751
Sunshine Station (NB),30.316434,-97.73571700000001,78751
4801 Sunshine (Criss Cole Rehab),30.317382000000002,-97.735114,78751
1100 49th/Grover,30.318790999999997,-97.73664699999999,78756
1200 51st/Grover,30.320707000000002,-97.735989,78756
5113 Woodrow/North,30.322371,-97.736892,78756
5223 Woodrow/North Loop,30.324061,-97.735824,78756
5413 Woodrow/Houston,30.326186,-97.734482,78756
5515 Woodrow/Houston,30.327565000000003,-97.733603,78756
5701 Woodrow/Theckla,30.329034000000004,-97.73267299999999,78756
5819 Woodrow/Koenig,30.330737,-97.73158000000001,78756
Woodrow/Alguno,30.332811,-97.730682,78757
Woodrow/Alegria,30.334573,-97.73012800000001,78757
6523 Woodrow/Brentwood,30.337279,-97.72842,78757
Woodrow/Dwyce,30.340171,-97.72659399999999,78757
7115 Woodrow/Piedmont,30.342848999999998,-97.72498399999999,78757
Woodrow/Pasadena,30.344977,-97.72521,78757
Woodrow/Morrow,30.34743,-97.723761,78757
7717 Woodrow/Princeton,30.349890000000002,-97.72301999999999,78757
1700 Anderson/Wooten Park,30.352790000000002,-97.72362,78757
Anderson/Mullen,30.35401,-97.72622,78757
4000 Tannehill/Jackie Robinson,30.276390000000003,-97.67603299999999,78721
Jackie Robinson/Delano,30.276588,-97.67835,78721
1420 Webberville/Fort Branch,30.27989,-97.681063,78721
Webberville/Ribbecke,30.279255,-97.683196,78721
12th/Webberville,30.278361,-97.685478,78721
4600 12th/Springdale,30.278940999999996,-97.68668199999999,78721
12th/Cometa,30.278639000000002,-97.689538,78721
3522 12th/E M Franklin,30.277864,-97.694461,78721
3250 12th/Airport,30.276978000000003,-97.70017800000001,78721
3100 12th/McKinley,30.276653999999997,-97.702258,78702
12th/Harvey,30.276346000000004,-97.70424,78702
2900 12th/Alexander,30.275723,-97.708093,78702
2730 12th/New York,30.275351,-97.710464,78702
12th/Cedar,30.274879,-97.713399,78702
2204 12th/Chestnut,30.274390000000004,-97.716486,78702
1914 12th/Chicon,30.273963000000002,-97.719142,78702
1700 12th/Leona,30.273521000000002,-97.72187,78702
1400 12th/Angelina,30.273059000000003,-97.7249,78702
1220 12th/San Bernard,30.272727000000003,-97.726844,78702
12th/IH-35,30.272088,-97.73084200000001,78702
12th/Navasota,30.272434000000004,-97.72784399999999,78702
1819 12th/Chicon,30.273695,-97.720001,78702
2601 12th/Cedar,30.274815000000004,-97.712846,78702
2733 12th/New York,30.275203,-97.710441,78702
2863 12th/Alexander,30.275533000000003,-97.708349,78702
2917 12th/Hargrave,30.275868,-97.706343,78702
3021 12th/McKinley,30.276474,-97.702363,78702
3245 12th/Airport,30.276730999999998,-97.700547,78702
3403 12th/Greenwood,30.277301,-97.697085,78721
3525 12th/E M Franklin,30.277721999999997,-97.694402,78721
1201 Webberville/12th,30.278282,-97.68454399999999,78721
1401 Webberville/Ribbecke,30.279405999999998,-97.682614,78721
1419 Webberville/Fort Branch,30.279744,-97.680966,78721
3811 Tannehill/Jackie Robinson,30.276584000000003,-97.675697,78721
4021 Tannehill/Samuel Huston,30.279192,-97.67397700000001,78721
1200 Rundberg/Teasdale,30.354111,-97.681289,78753
Rundberg/Hansford,30.355636999999998,-97.68363000000001,78753
838 Rundberg/Middle Fiskville,30.357219,-97.685998,78753
Georgian/Home Pl.,30.355832,-97.696474,78753
Georgian/Elliott,30.353289,-97.699042,78753
Georgian/Jennifer,30.349752000000002,-97.702016,78753
Georgian/Powell,30.347696999999997,-97.703234,78753
8000 Georgian/Anderson,30.344902,-97.70465899999999,78753
7700 Northcrest/Anderson,30.343359999999997,-97.705878,78753
Crestland/Meadowview,30.339681,-97.711761,78752
7414 Guadalupe/Crestland,30.339901,-97.713146,78752
7106 Guadalupe/St Johns,30.337324,-97.714833,78752
Guadalupe/Swanee,30.335704999999997,-97.715903,78752
105 Highland Mall/Jonathan,30.328490999999996,-97.713603,78752
5600 Avenue F/56th,30.321167,-97.71899599999999,78752
Duval/51st,30.314362,-97.719922,78751
Duval/48th,30.310968,-97.72212900000001,78751
Duval/43rd,30.30438,-97.726357,78751
4002 Duval/41st,30.301674,-97.728038,78751
Duval/33rd,30.295648999999997,-97.731832,78705
3200 Duval/32nd,30.294603000000002,-97.732495,78705
Duval/30th,30.291876000000002,-97.734222,78705
San Jacinto/Dean Keeton NW Corner,30.289599,-97.734686,78705
2324 San Jacinto/24th,30.28671,-97.733652,78705
2300 San Jacinto/23rd,30.285505999999998,-97.73378199999999,78705
2100 San Jacinto/21st,30.283362,-97.734165,78705
715 Riverside/Alameda,30.250734,-97.74061,78704
1005 East Riverside/Travis Heights,30.249589,-97.738348,78704
Riverside/Kenwood,30.248592,-97.736886,78704
1724 Burton/Woodland,30.236152,-97.728459,78741
1920 Burton/Mariposa,30.233860999999997,-97.731812,78741
2310 Parker/Oltorf,30.231873999999998,-97.737285,78741
2504 Parker/Braxton,30.229929,-97.738557,78741
2718 Parker/Royal Hill,30.227503999999996,-97.740505,78741
Woodward/Ben White NW Corner,30.217146999999997,-97.74404200000001,78741
Freidrich/Directors,30.212493,-97.748209,78744
4600 Freidrich/St Elmo,30.208183000000002,-97.750908,78744
Teri/Freidrich,30.202831,-97.753472,78744
5406 Pleasant Valley/Village,30.193289,-97.744743,78744
5802 Pleasant Valley/Leatherleaf,30.188889,-97.74554499999999,78744
6100 Pleasant Valley/Dove Springs,30.185358,-97.745648,78744
6406 Pleasant Valley/Creek Bend,30.182114000000002,-97.74609699999999,78744
6107 Pleasant Valley/Turnstone,30.185198,-97.74519599999999,78744
5803 Pleasant Valley/Village Square,30.188890999999998,-97.74529,78744
5505 Pleasant Valley/Palo Blanco,30.192228999999998,-97.744496,78744
4621 Stassney/Pleasant Valley,30.193067,-97.74450999999999,78744
2522 Stassney/Chaparral,30.193919,-97.747016,78744
2408 Stassney/Palo Blanco,30.193714,-97.750685,78744
2008 Teri/Pepper,30.202365000000004,-97.752499,78744
4801 Freidrich/Teri,30.204465999999996,-97.753036,78744
4601 Freidrich/City Yard,30.208174,-97.75068399999999,78744
4217 Freidrich/St Elmo,30.211335,-97.748705,78744
4115 Freidrich/Woodward,30.213484,-97.746116,78744
Woodward/Ben White SE Corner,30.215081,-97.744146,78741
1901 Woodward/Parker,30.219456,-97.743789,78741
3101 Parker/Wickshire,30.224517,-97.74215799999999,78741
2801 Parker/Royal Hill,30.227381,-97.740387,78741
2501 Parker/Braxton,30.230144,-97.7382,78741
2301 Parker/Oltorf,30.232115999999998,-97.73693399999999,78741
2001 Burton/Mariposa,30.233411,-97.731925,78741
Burton/Valley Hill Cir.,30.23436,-97.730784,78741
1801 Burton/Woodland,30.235764,-97.72851,78741
1000 East Riverside/Travis Heights,30.249906,-97.73859399999999,78704
150 Riverside/Newning,30.255868,-97.74546,78704
2031 San Jacinto/21st,30.283103999999998,-97.73391,78705
2525 San Jacinto/Dean Keeton,30.288776000000002,-97.734397,78705
Duval/Bellevue,30.292127,-97.733917,78705
Duval/32nd,30.293384000000003,-97.733108,78705
Duval/Harris,30.29591,-97.73149000000001,78705
3717 Duval/38th,30.298515000000002,-97.729831,78705
4017 Duval/41st,30.30214,-97.727604,78751
Duval/Park,30.304132,-97.72635799999999,78751
4433 Duval/45th,30.306896000000002,-97.724576,78751
4533 Duval/45th,30.308301,-97.723678,78751
4803 Duval/48th Street,30.311173999999998,-97.721789,78751
Duval/Bruning,30.314434999999996,-97.719695,78751
5613 Avenue F/Koenig,30.321597999999998,-97.71873000000001,78752
6902 Airport Blvd/Guadalupe,30.333977,-97.716818,78752
Guadalupe/Kennistson,30.334694,-97.71637700000001,78752
7125 Guadalupe/St Johns,30.337671000000004,-97.714427,78752
7417 Guadalupe/Crestland,30.339996000000003,-97.712898,78752
7601 Northcrest/Prairie Dell,30.340632,-97.708421,78752
Georgian/Red Oak,30.349494,-97.70200600000001,78753
Georgian/Walnut,30.351297,-97.700509,78753
Georgian/Little Walnut,30.353431,-97.698728,78753
Georgian/Home Place,30.356009000000004,-97.696169,78753
9013 Georgian/Fawnridge,30.358121999999998,-97.69480899999999,78753
307 Rundberg/North Creek,30.360039,-97.692027,78753
829 Rundberg/Middle Fiskville,30.357384999999997,-97.686663,78753
7346 Lamar/Sugaree,30.34127,-97.71682,78752
1041 St Johns/Meador,30.329040000000003,-97.69637,78752
1127 St Johns/Grand Canyon,30.328129999999998,-97.69448,78752
Berkman/US 290 NW Corner,30.3223,-97.68924,78752
6208 Berkman/Glen Valley,30.316451,-97.691223,78723
5810 Berkman/Sweetbriar,30.312310999999998,-97.69366600000001,78723
Berkman/Cloverleaf,30.309341999999997,-97.695539,78723
4612 Springdale/Touchstone,30.289603000000003,-97.680296,78723
4300 Springdale/Martin Luther King,30.286134000000004,-97.682608,78723
Springdale/Oak Cliff,30.285006,-97.68328100000001,78721
Springdale/Kitty,30.283131,-97.684516,78721
Springdale/Glomar,30.281878999999996,-97.685305,78721
1200 Springdale/12th,30.279234000000002,-97.686965,78721
1150 Springdale/Webberville,30.276735,-97.688489,78721
1106 Springdale/Ledesma,30.274303000000003,-97.69009,78721
1050 Springdale/Prock,30.270901000000002,-97.692225,78721
1018 Springdale/Goodwin,30.267578999999998,-97.694349,78721
1006 Springdale/Airport,30.266136,-97.695276,78721
3600 Govalle/Gunter,30.264829,-97.69866400000001,78702
3200 Govalle/Tillery,30.26602,-97.70201999999999,78702
Govalle/Webberville,30.2677,-97.70687,78702
850 Pleasant Valley/Webberville,30.265159999999998,-97.70881,78702
820 Pleasant Valley/Lyons,30.26365,-97.70834,78702
650 Pleasant Valley/7th,30.259735,-97.70972900000001,78702
104 Pleasant Valley/Cesar Chavez,30.253275,-97.712766,78702
1108 Pleasant Valley/Lakeshore,30.242025,-97.717608,78741
2502 Oltorf/Pleasant Valley,30.227843,-97.728279,78741
2030 Oltorf/Willow Creek,30.230518,-97.732354,78741
2201 Burton/Oltorf,30.231208000000002,-97.73355,78741
Burton/Riverside,30.239196000000003,-97.72757800000001,78741
Elmont/Pleasant Valley,30.239077,-97.720327,78741
1100 Pleasant Valley/Lakeshore,30.242290999999998,-97.717206,78741
517 Pleasant Valley (Krieg Field),30.245846000000004,-97.71494799999999,78741
Pleasant Valley/2nd,30.253709999999998,-97.712369,78702
301 Pleasant Valley/3rd,30.255151,-97.7117,78702
501 Pleasant Valley/5th,30.257417999999998,-97.710603,78702
651 Pleasant Valley/7th,30.259906,-97.709468,78702
819 Pleasant Valley/Lyons,30.263527000000003,-97.708225,78702
851 Pleasant Valley/Webberville,30.2653,-97.70876,78702
3601 Govalle/Gunter,30.264615999999997,-97.698463,78702
1017 Springdale/Goodwin,30.267244,-97.694388,78721
1053 Springdale/Prock,30.27106,-97.69193,78721
1107 Springdale/Ledesma,30.274299,-97.689894,78721
1161 Springdale/Webberville,30.277096000000004,-97.688064,78721
1207 Springdale/12th,30.279923999999998,-97.686346,78721
Springdale/Leslie,30.282374,-97.684815,78721
Springdale/Bandera,30.283988,-97.683748,78721
1819 Springdale/Martin Luther King,30.28557,-97.68273,78721
Berkman/Larkwood,30.31036,-97.69473,78723
6001 Berkman/Briarcliff,30.314785999999998,-97.692049,78723
6207 Berkman/Glen Valley,30.31646,-97.691029,78723
6509 Berkman/Wheless,30.318728000000004,-97.689634,78723
Berkman/US 290 SE Corner,30.320740999999998,-97.688771,78723
Berkman/US 290 NE Corner,30.322440000000004,-97.68899,78752
7200 Cameron/St Johns,30.326290000000004,-97.69233,78752
1034 St Johns/Meador,30.32925,-97.69644,78752
1008 St Johns/Bethune,30.33032,-97.69854000000001,78752
900 St Johns/Bennett,30.331594,-97.701247,78752
7100 Roland Johnson/St Johns,30.333174,-97.706079,78752
6970 Roland Johnson/Huntland,30.330907,-97.706983,78752
300 Huntland/Brenda,30.330854,-97.71068100000001,78752
6500 Jonathan Dr (Highland Mall),30.328767,-97.71305600000001,78752
7401 Lamar/St Johns,30.341113,-97.716607,78752
Exposition/Warren,30.309551000000003,-97.762879,78703
Exposition/Mountain Laurel,30.307628,-97.763402,78703
Exposition/Northwood,30.305496,-97.764927,78703
2728 Exposition (Casis Elementary),30.303790000000003,-97.764542,78703
2525 Enfield/Norwalk,30.289983000000003,-97.7712,78703
1801 Enfield/Hartford,30.284785999999997,-97.762233,78703
1603 Enfield/West Lynn,30.282771,-97.758105,78703
Oltorf/Alta Vista,30.236320000000003,-97.74719,78704
1101 Oltorf/Alta Vista,30.235651,-97.745688,78704
1313 Oltorf/Schriber,30.234202000000003,-97.743018,78704
1605 Oltorf/IH 35,30.233220000000003,-97.739459,78741
1747 Oltorf/Parker,30.232279,-97.737098,78741
710 Oltorf/East Side,30.23677,-97.748611,78704
324 12th/Guadalupe,30.274749,-97.74333,78701
Enfield/Pease,30.283102000000003,-97.758934,78703
1728 Enfield/Hartford,30.28462,-97.761717,78703
2600 Enfield/Norwalk,30.29028,-97.771413,78703
Enfield/Hopi,30.292410999999998,-97.775684,78703
6594 1st/William Cannon,30.197445000000002,-97.7875,78745
6403 S 1st/Eberhart,30.200331,-97.785673,78745
6001 S 1st/Flournoy,30.203634,-97.783793,78745
5803 South 1st/Flournoy,30.205408000000002,-97.782945,78745
5201 S 1st/Ramble,30.211572999999998,-97.779025,78745
5001 S 1st/Emerald Wood,30.213276,-97.77801099999999,78745
4901 S 1st/Heartwood,30.214438,-97.776945,78745
4617 S 1st/Orland,30.216798999999998,-97.77545400000001,78745
4401 S 1st/St Elmo,30.220937,-97.772909,78745
4217 S 1st/Radam,30.223688,-97.771174,78745
3811 S 1st/Krebs,30.227804,-97.76856,78704
3715 1st/South Center,30.229626,-97.76746899999999,78704
3505 S 1st/Alpine,30.231309000000003,-97.766349,78704
3205 S 1st/South Park,30.232951,-97.765303,78704
3001 S 1st/Powell,30.235094,-97.763975,78704
2701 S 1st/Cumberland,30.238061,-97.762106,78704
2529 S 1st/Herndon,30.239949,-97.760859,78704
2401 S 1st/Oltorf,30.24193,-97.759656,78704
2201 S 1st/Live Oak,30.244369,-97.757657,78704
1801 S 1st/Annie,30.247241,-97.755836,78704
1001 S 1st/Copeland,30.253611,-97.75294,78704
615 South 1st/Copeland,30.256192,-97.751284,78704
505 S 1st/Barton Springs,30.258136999999998,-97.750069,78704
Dean Keeton/Dancy,30.285195,-97.722898,78722
2219 Manor/Chestnut,30.284353999999997,-97.71826899999999,78722
2515 Manor/Stafford,30.284779999999998,-97.715568,78722
2709 Manor/Walnut,30.285090999999998,-97.71356999999999,78722
2803 Manor/Merrie Lynn,30.28535,-97.71191800000001,78722
Manor/Alexander,30.285646999999997,-97.709889,78722
2963 Manor/Rountree,30.286087,-97.70702,78722
Morris Williams Golf Course,30.290077,-97.694633,78723
4601 Manor/Lovell,30.292793,-97.689207,78723
5005 Manor/Manor Circle,30.297047999999997,-97.687528,78723
5029 Manor/51st,30.297974,-97.68704699999999,78723
Manor/Pecan Springs,30.301198,-97.684791,78723
5503 Manor/Pecan Springs,30.302505,-97.683408,78723
5711 Manor/Rogge,30.305088,-97.68083,78723
5819 Manor/Sweeney,30.306309999999996,-97.680068,78723
6211 Manor/Walnut Hills,30.307940999999996,-97.675228,78723
6303 Manor/Reicher,30.308003999999997,-97.67264499999999,78723
6311 Manor/Northeast,30.308382,-97.671054,78723
6699 Manor/Loyola,30.30992,-97.66719,78723
7033 Manor/Susquehanna,30.312849,-97.665031,78723
4601 Pecan Brook/Manor,30.318321,-97.660799,78724
5109 Pecan Brook/Chisos Pass,30.315551,-97.657848,78724
5513 Pecan Brook/Tumbleweed,30.313182,-97.653153,78724
5721 Pecan Brook/Crystalbrook,30.31198,-97.65061999999999,78724
7008 Crystalbrook/Purple Sage,30.308000000000003,-97.652679,78724
7109 Crystalbrook/Purple Sage,30.308573,-97.652374,78724
5600 Pecan Brook/Tumbleweed,30.313091999999997,-97.65260500000001,78724
5300 Pecan Brook/Uray,30.314638000000002,-97.655825,78724
5110 Pecan Brook/Chisos Pass,30.315559999999998,-97.65762,78724
4600 Pecan Brook/Manor,30.318264000000003,-97.66035699999999,78724
7000 Manor/Susquehanna,30.313865000000003,-97.664697,78723
6650 Manor/Loyola,30.310003000000002,-97.66748199999999,78723
6400 Manor/Northeast,30.3085,-97.671213,78723
6300 Manor/Reicher,30.30814,-97.672813,78723
6118 Manor/Walnut Hills,30.308097999999998,-97.67644399999999,78723
6102 Manor/Wheeless,30.307940999999996,-97.67819399999999,78723
5900 Manor/Sweeney,30.306590000000003,-97.68010100000001,78723
5700 Manor/Rogge,30.304709999999996,-97.68131,78723
Manor/Wellington,30.30115,-97.685058,78723
5100 Manor/51st,30.298362,-97.68701999999999,78723
Manor/Manor Circle,30.297014,-97.68771600000001,78723
4500 Manor/Lovell,30.29216,-97.689382,78723
3600 Manor/Pershing,30.289340000000003,-97.698275,78723
Manor/Anchor,30.287728,-97.701113,78723
2948 Manor/Banton,30.286111,-97.707942,78722
Manor/Randolph,30.285663,-97.710921,78722
Manor/Walnut,30.285159000000004,-97.714104,78722
2314 Manor/Maple,30.284671999999997,-97.717292,78722
Dean Keeton/French,30.284134,-97.72059499999999,78722
Dean Keeton/Dancy NE Corner,30.285272999999997,-97.722452,78722
400 S 1st/Riverside,30.259308,-97.749759,78704
500 S 1st/Barton Springs,30.258081,-97.750396,78704
614 South 1st/Barton Springs,30.256619,-97.751224,78704
1214 S 1st/Gibson,30.251662,-97.754362,78704
1720 S 1st/Annie,30.247569,-97.755862,78704
2112 S 1st/Live Oak,30.244645000000002,-97.757707,78704
2324 S 1st/Oltorf,30.242264000000002,-97.759614,78704
2522 S 1st/Herndon,30.239755,-97.761235,78704
2904 S 1st/Sacramento,30.236209000000002,-97.763482,78704
3014 S 1st/Peacock,30.234537,-97.764504,78704
3310 S 1st/Cardinal,30.232131,-97.766035,78704
3508 S 1st/Alpine,30.230904,-97.76678100000001,78704
3808 S 1st/Post Road,30.228459,-97.768348,78704
4104 S 1st/Ben White,30.225333000000003,-97.770328,78745
4220 S 1st/Clifford,30.223353000000003,-97.771567,78745
4326 S 1st/St Elmo,30.221255,-97.77289300000001,78745
4530 S 1st/Philco,30.218151000000002,-97.774823,78745
5000 S 1st/Emerald Wood,30.213437,-97.778077,78745
5400 S 1st/Arbor Circle,30.210434000000003,-97.780019,78745
6106 S 1st/Blueberry,30.202421,-97.784596,78745
6400 S 1st/Eberhart,30.200712,-97.78568299999999,78745
6502 S 1st/King Edward,30.199208000000002,-97.786609,78745
William Cannon/Cooper,30.198565000000002,-97.790913,78745
William Cannon/Emerald Forest,30.199334000000004,-97.79335400000001,78745
4400 Red River/44th,30.303378000000002,-97.72062,78751
4000 Red River/40th,30.298607,-97.72278299999999,78751
Red River/38th,30.295759999999998,-97.723443,78751
3100 Red River/32nd,30.290571999999997,-97.727389,78705
604 Barton Springs/1st,30.258710999999998,-97.750773,78704
710 Bouldin/Retama,30.257201000000002,-97.755051,78704
1006 Bouldin/Columbus,30.254688,-97.756456,78704
1316 Bouldin/Elizabeth,30.252322999999997,-97.757885,78704
1514 Bouldin/Monroe,30.250809000000004,-97.758737,78704
Bouldin/Annie,30.24878,-97.759825,78704
Annie/5th,30.249232,-97.761383,78704
1816 S 5th/Mary,30.248451,-97.762069,78704
5th/Cumberland,30.239990999999996,-97.766028,78704
1010 Cumberland/5th,30.240685,-97.767903,78704
2714 Raywood/Locke,30.240225,-97.769008,78704
2866 Raywood/Weathers,30.238767,-97.769729,78704
1003 Barton Skyway/Garden Villa,30.235922,-97.76952299999999,78704
3400 Garden Villa/Cardinal,30.234267,-97.77104399999999,78704
Garden Villa/South Center NW Corner,30.231869,-97.772554,78704
Garden Villa/Banister,30.229371,-97.77416099999999,78704
4402 Banister/Casey,30.225327000000004,-97.78108399999999,78745
Redd/Gillis,30.224111999999998,-97.783447,78745
Redd/Clawson,30.225828000000003,-97.78604,78745
1918 Redd/Menchaca,30.228227,-97.78918900000001,78745
Redd/Cactus,30.22897,-97.79075,78745
2222 Western Trails/Pack Saddle,30.230411,-97.793637,78745
2422 Western Trails/Roundup,30.229929,-97.79617900000001,78745
2554 Western Trails/Tejas Trail,30.230226000000002,-97.79767,78745
US 290/Mopac (Walmart),30.233365000000003,-97.82141999999999,78749
Western Trails/Roundup,30.229703999999998,-97.796366,78745
2001 Redd/Menchaca,30.228309000000003,-97.789635,78745
Redd/Russell,30.227114,-97.787154,78745
1301 Redd/Gillis,30.223675,-97.782793,78745
4309 Banister/Casey,30.225706,-97.780674,78704
Banister/Ben White SE Corner,30.227290000000004,-97.77963299999999,78745
Banister/Summer Oaks,30.229708000000002,-97.77799300000001,78704
3803 Garden Villa/Banister,30.230185,-97.773487,78704
Garden Villa/South Center,30.231689000000003,-97.772529,78704
3401 Garden Villa/Cardinal,30.234270000000002,-97.77089000000001,78704
1008 Barton Skyway/Locke,30.236266999999998,-97.769888,78704
2901 Raywood/Weathers,30.238522999999997,-97.769749,78704
2801 Raywood/Locke,30.239921000000002,-97.769036,78704
Cumberland/S. 5th,30.239818,-97.76617900000001,78704
S. 5th/Live Oak,30.2461,-97.763411,78704
1901 S 5th/Mary,30.248199,-97.762089,78704
Annie/Bouldin,30.248678,-97.759937,78704
1601 Bouldin/Monroe,30.250582,-97.758707,78704
1401 Bouldin/Elizabeth,30.252104,-97.757885,78704
1007 Bouldin/Columbus,30.254593,-97.756351,78704
703 Bouldin/Post Oak,30.257521,-97.754706,78704
501 Bouldin/Barton Springs,30.259371,-97.75351500000001,78704
215 Cesar Chavez/Lavaca,30.263819,-97.74636600000001,78701
3805 Red River/38th Half,30.296366,-97.723097,78705
3923 Red River/40th,30.298740999999996,-97.722544,78751
4309 Red River/44th,30.303319000000002,-97.720483,78751
Airport/52nd,30.312952000000003,-97.715184,78751
5315 Airport/53rd Half,30.314806,-97.714617,78751
5617 Airport/Koenig,30.318440000000002,-97.712869,78751
5815 Airport/Koenig,30.322861,-97.714898,78752
1003 Cesar Chavez/San Marcos,30.260385,-97.734196,78702
1403 Cesar Chavez/Navasota,30.25899,-97.73018,78702
1605 Cesar Chavez/Comal,30.258278999999998,-97.72815600000001,78702
Gardner/Jain Ln.,30.259882,-97.68163299999999,78721
1600 Cesar Chavez/Comal,30.25853,-97.72848,78702
1400 Cesar Chavez/Navasota,30.259225,-97.730508,78702
1200 Cesar Chavez/Waller,30.259911,-97.732463,78702
1000 Cesar Chavez/San Marcos,30.260578000000002,-97.73438,78702
3513 Jefferson/35th,30.308329999999998,-97.751132,78731
Bull Creek/39th,30.311658,-97.752215,78731
4419 Bull Creek/45th,30.320397999999997,-97.75347099999999,78731
5001 Bull Creek/Fresco,30.326565999999996,-97.749702,78731
2824 Hancock/Bull Creek,30.328576,-97.750935,78731
Hancock/Frances Place,30.329875,-97.753562,78731
3306 Hancock/Balcones,30.332741,-97.759601,78731
Balcones/Parkcrest,30.336139000000003,-97.75796,78731
6101 Balcones/Northland,30.34337,-97.75318,78731
6805 Wood Hollow/North Hills,30.350884000000004,-97.754614,78731
Wood Hollow/Far West NE Corner,30.35377,-97.75282,78731
7131 Wood Hollow/Far West,30.355387,-97.75180999999999,78731
3536 Greystone/Wood Hollow,30.358390000000004,-97.75135999999999,78731
3614 Greystone/Hart,30.35882,-97.75363,78731
7503 Mesa/Greystone,30.364990000000002,-97.76295,78731
Mesa/Myrick,30.368290000000002,-97.75910999999999,78731
8045 Mesa/Spicewood Springs,30.37133,-97.757205,78759
4039 Steck/Mesa,30.37404,-97.75497,78759
3933 Steck/Spicewood,30.373071000000003,-97.752995,78759
3813 Steck/Greenslope,30.372659999999996,-97.74893,78759
Steck/Forest Mesa,30.37077,-97.74685600000001,78759
3605 Steck/Forest Mesa,30.36958,-97.74562,78759
3519 Steck/Mopac,30.36875,-97.74387,78759
3305 Steck/Mopac,30.366743,-97.739675,78757
Rockwood/Steck,30.364359999999998,-97.73534000000001,78757
7920 Rockwood/Ashdale,30.360677000000003,-97.737737,78757
7921 Rockwood/Anderson,30.360840000000003,-97.73743,78757
Steck/Sandalwood,30.364974,-97.735546,78757
3400 Steck/Shoal Creek,30.366965000000004,-97.739674,78757
Steck/Mopac,30.368976,-97.743943,78759
Steck/Summerside,30.37058,-97.7466,78759
3822 Steck/Greenslope,30.37292,-97.74916999999999,78759
3924 Steck/Spicewood,30.373226000000003,-97.75297900000001,78759
8140 Mesa/Steck,30.37377,-97.756008,78759
8038 Mesa/Spicewood Springs,30.371,-97.75759000000001,78759
3807 Greystone/Chimney Corners,30.36082,-97.75738,78731
3615 Greystone/Hart,30.35865,-97.75363,78731
7400 Wood Hollow/Greystone,30.35775,-97.75079000000001,78731
7200 Wood Hollow/Greystone,30.35517,-97.75214,78731
Wood Hollow/Far West NW Corner,30.3536,-97.75310999999999,78731
6714 Wood Hollow/Far West,30.35077,-97.75486,78731
North Hills/Valleyside SE Corner,30.348809999999997,-97.75376999999999,78731
5758 Balcones/Hart,30.339599,-97.75579300000001,78731
3313 Hancock/Balcones,30.332659000000003,-97.7597,78731
Hancock/Valley Oak,30.331464,-97.75715,78731
Hancock/West Frances Place,30.329565999999996,-97.753292,78731
2825 Hancock/Fresco,30.328059999999997,-97.75024,78731
Bull Creek/Hancock,30.327267,-97.74943499999999,78731
4748 Bull Creek/49th,30.324792,-97.750945,78731
4700 Bull Creek/Perry,30.323210999999997,-97.75192,78731
4318 Bull Creek/44th,30.318162,-97.755038,78731
4220 Bull Creek/Jackson,30.316658,-97.754834,78731
Bull Creek/38th,30.311138,-97.75205799999999,78731
3604 Bull Creek/Jefferson,30.309399,-97.75095400000001,78731
Health Center WB,30.252658,-97.73424200000001,78702
59 Waller/Holly,30.256190000000004,-97.73425999999999,78702
6th/Guadalupe,30.269078999999998,-97.746086,78701
842 6th/Wood,30.270962,-97.752215,78703
6th/Baylor,30.271955,-97.754879,78703
1208 6th/Harthan,30.273061,-97.757846,78703
6th/Pressler,30.273934999999998,-97.760118,78703
6th/West Lynn,30.274835999999997,-97.762509,78703
Veterans/Atlanta,30.276121000000003,-97.771658,78703
Lake Austin/7th,30.282319,-97.77605799999999,78703
Exposition/10th,30.285795,-97.77499399999999,78703
Exposition/12th,30.28766,-97.773815,78703
Exposition/Enfield SE Corner,30.290414000000002,-97.77208900000001,78703
35th/Jefferson,30.30776,-97.7519,78731
35th/Crawford,30.307129999999997,-97.74927,78731
1301 W 38th/Tonkawa,30.306459999999998,-97.74609,78705
38th/Medical Parkway,30.305322999999998,-97.74376,78705
2900 Guadalupe/29th,30.295655,-97.742752,78705
307 Dean Keeton/San Jacinto,30.289202000000003,-97.734866,78705
701 Dean Keeton/San Jacinto,30.289092999999998,-97.73154,78705
Dean Keeton/Robert Dedman,30.28783,-97.728643,78705
1101 38th Half/Robinson,30.294337,-97.71870799999999,78722
1405 38th Half/Clarkson,30.2927,-97.71574,78722
38th 1/2 /Cherrywood,30.291308,-97.713951,78722
Cherrywood/32nd,30.286857,-97.716876,78722
Lafayette/Manor,30.283896999999996,-97.72223100000001,78722
2012 Chicon/21st,30.281539000000002,-97.72167900000001,78722
1810 Chicon/Martin Luther King,30.279458,-97.721226,78702
Chicon/16th,30.276889,-97.720647,78702
Chicon/13th,30.274873,-97.72021600000001,78702
1196 Chicon/12th,30.273484000000003,-97.71992,78702
Chicon/New York,30.272537,-97.719729,78702
1150 Chicon/Rosewood,30.269775,-97.719137,78702
Chicon/Cornell,30.268434000000003,-97.719497,78702
Chicon/11th,30.266178000000004,-97.72055300000001,78702
900 Chicon (Huston-Tillotson),30.264536,-97.721293,78702
700 Chicon/7th,30.262760999999998,-97.722107,78702
314 Chicon/4th,30.259509,-97.723601,78702
206 Chicon/2nd,30.258414000000002,-97.724115,78702
1700 Holly/Chalmers,30.25422,-97.72813199999999,78702
1600 Holly/Comal,30.254921000000003,-97.730153,78702
1400 Holly/Navasota,30.255619,-97.732075,78702
45 Waller/Clermont,30.254853000000004,-97.73485500000001,78702
1401 Holly/Navasota,30.255457,-97.73204,78702
1511 Holly/Comal,30.254888,-97.730453,78702
1631 Holly/Chalmers,30.254178999999997,-97.72845799999999,78702
311 Chicon/4th,30.259493,-97.723477,78702
613 Chicon/7th,30.262273999999998,-97.722189,78702
807 Chicon (Huston-Tillotson),30.263956,-97.721408,78702
Chicon/College Row,30.265511,-97.720676,78702
Chicon/Hamilton,30.267474,-97.719768,78702
1143a Chicon/Cornell,30.269044,-97.71905799999999,78702
1155 Chicon/Rosewood,30.270126,-97.719064,78702
Chicon/Pennsylvania,30.271659999999997,-97.719385,78702
1197 Chicon/12th,30.273559000000002,-97.719788,78702
Chicon/14th,30.27565,-97.720224,78702
Chicon/17th,30.2777,-97.72068,78702
1817 Chicon/Martin Luther King,30.279657,-97.72111600000001,78702
2103 Chicon/21st,30.282120000000003,-97.721643,78722
1602 38th Half/Maplewood,30.29213,-97.71425,78722
920 Dean Keeton/Red River,30.287578999999997,-97.727345,78705
Dean Keeton/Speedway NE Corner,30.289563,-97.73662900000001,78705
38th/Bailey,30.306256,-97.745209,78756
1512 35th/Kerbey,30.30722,-97.75014,78731
35th/Lawton,30.308197999999997,-97.752801,78731
35th/Jackson,30.308822999999997,-97.75570400000001,78731
2300 W 35th/Mopac,30.309568,-97.75997199999999,78703
2211 Lake Austin/Veterans,30.277379999999997,-97.77136999999999,78703
5th/Pressler,30.272678000000003,-97.76093399999999,78703
5th/Baylor,30.270977000000002,-97.75640600000001,78703
5th/Bowie,30.269522,-97.752626,78703
5th/West,30.26926,-97.75113,78703
5th/Nueces,30.268672,-97.748979,78701
5th/San Antonio,30.26835,-97.74792,78701
5th/Guadalupe,30.268054,-97.74679,78701
Barton Springs/Barton,30.263834000000003,-97.763936,78704
1619 Barton Springs/Kinney,30.262396999999996,-97.762236,78704
911 Barton Springs/Bouldin,30.25961,-97.753924,78704
910 Barton Springs/Bouldin,30.259787,-97.753879,78704
1218 Barton Springs/Lee Barton,30.260734999999997,-97.757225,78704
1718 Barton Springs/Kinney,30.263215000000002,-97.762789,78704
Woodward/Parker SW Corner,30.219261,-97.743912,78741
South 1st/Ben White,30.227120000000003,-97.769607,78704
1228 Ben White/Banister,30.228181,-97.778886,78704
Ben White/Clawson,30.228725,-97.78379100000001,78704
Walsh Tarlton/Twin Berry,30.26264,-97.80853499999999,78746
1701 Walsh Tarlton/Thousand Oaks,30.266527000000004,-97.80608199999999,78746
1501 Walsh Tarlton/Terrapin,30.268379,-97.804908,78746
1019 Walsh Tarlton/Wilderness,30.272569,-97.801467,78746
Spyglass/Barton Skyway,30.258128999999997,-97.787481,78746
1871 Barton Springs/Azie Morton,30.264484999999997,-97.764399,78704
2220 Barton Springs (Zilker),30.268347,-97.772808,78746
2500 Wallingwood/Bee Caves,30.264934000000004,-97.782988,78746
1500 Walsh Tarlton/Terrapin,30.268486,-97.805071,78746
1614 Walsh Tarlton/Thousand Oaks,30.266895,-97.806086,78746
1916 Walsh Tarlton/Stoneridge,30.264390000000002,-97.807634,78746
Walsh Tarlton/Tamarron,30.261559000000002,-97.80944000000001,78746
4401 Pack Saddle Pass/Ben White,30.231016999999998,-97.792022,78745
1901 Ben White/Merle,30.229072,-97.787515,78745
Ben White/Gillis,30.227404999999997,-97.781573,78704
1301 Ben White/Banister,30.227363,-97.779907,78704
2410 Grove/Montopolis,30.220474,-97.707258,78741
2800 Montopolis/Oltorf,30.216403999999997,-97.709274,78741
6100 Oltorf/Montopolis,30.216576,-97.713186,78741
5500 Oltorf (Attorney General),30.219068,-97.718317,78741
5300 Oltorf/Alvin Devane,30.219811,-97.71986600000001,78741
4820 Oltorf/Sunridge,30.223369,-97.722336,78741
2400 Oltorf/Pleasant Valley,30.228981,-97.729647,78741
1900 Oltorf/Burton,30.231313,-97.73530799999999,78741
1730 Oltorf/Parker,30.232591999999997,-97.737362,78741
1616 E Oltorf,30.233502,-97.739665,78741
1300 Oltorf/Schriber,30.23465,-97.74353,78704
1100 Oltorf/Schriber,30.235895000000003,-97.745863,78704
512 Oltorf/Rebel,30.237484000000002,-97.751288,78704
526 Oltorf/1st,30.242137,-97.759362,78704
910 Oltorf/ South 4th,30.243574,-97.76374799999999,78704
2330 Lamar/Goodrich,30.247258000000002,-97.776176,78704
Oltorf West Station (NB),30.248023999999997,-97.77101400000001,78704
1401 Oltorf/Thornton,30.246668,-97.76939499999999,78704
905 Oltorf/ South 5th,30.243370000000002,-97.76355699999999,78704
539 Oltorf/1st,30.241846999999996,-97.759236,78704
643 Oltorf/East Side,30.236659999999997,-97.74904000000001,78704
2503 Oltorf/Pleasant Valley,30.2275,-97.728071,78741
4527 Oltorf/Wickersham,30.225638,-97.72456600000001,78741
4809 Oltorf/Sunridge,30.223249,-97.72253,78741
5413 Oltorf/Alvin Devane,30.21916,-97.71897299999999,78741
6001 Oltorf/Alvin Devane,30.217484999999996,-97.71550400000001,78741
6101 Oltorf/Alvin Devane,30.216271999999996,-97.71299,78741
2421 Grove/Montopolis,30.220578999999997,-97.70705699999999,78741
Grove/Riverside,30.228216999999997,-97.70704599999999,78741
6701 Wentworth/Loyola,30.293253000000004,-97.631316,78724
Loyola/Colony Loop,30.298092999999998,-97.64259200000001,78724
Colony Park/Loyola,30.298759999999998,-97.64461999999999,78724
6714 Loyola/Sandshof,30.299246999999998,-97.64583499999999,78724
5600 Loyola/Millrace,30.303051,-97.657759,78724
3300 Loyola/Kings Point,30.311577000000003,-97.669075,78723
2900 Loyola/Tulsa,30.314190999999997,-97.673126,78723
2400 Loyola/Roanoke,30.318413,-97.678508,78723
6800 Northeast/Loyola,30.317815000000003,-97.680764,78723
6502 Northeast/North Hampton,30.315093,-97.681362,78723
2006 Gaston Place/Wellington,30.312628999999998,-97.688711,78723
1500 Briarcliff/Belfast,30.315083,-97.694414,78723
5900 Cameron/Clayton,30.317046,-97.70010400000001,78723
5700 Cameron/Reinli,30.315549,-97.701918,78723
5420 Cameron/Corona,30.312939,-97.70529300000001,78723
4120 IH 35/Clarkson,30.299501,-97.717117,78751
500 Lamar/5th,30.270539000000003,-97.754587,78703
220 Lamar/Toomey,30.2631,-97.757876,78704
Lamar Square Station (SB),30.254493,-97.762566,78704
2008 Lamar/Hether,30.249289,-97.767901,78704
Oltorf West Station (SB),30.248028,-97.77175600000001,78704
2638 Lamar/Dickson,30.245471000000002,-97.779927,78704
3000 Lamar/Barton Skyway,30.243185999999998,-97.783077,78704
Brodie Oaks Station (SB),30.236571,-97.792508,78704
4608 West Gate/Lamar,30.230471,-97.800924,78745
4900 West Gate/Choctaw Trail,30.227304999999998,-97.802541,78745
5012 West Gate/Jones,30.225819,-97.803849,78745
5306 West Gate/Indio,30.223145000000002,-97.805582,78745
West Gate/Cherry Creek NW Corner,30.219202000000003,-97.80711099999999,78745
6010 West Gate/Cherry Creek,30.216907,-97.81104599999999,78745
6402 West Gate/Dillion Hill,30.21316,-97.81506999999999,78745
West Gate/Deaton Hill NW Corner,30.210896,-97.814594,78745
6808 West Gate/William Cannon,30.208321,-97.814818,78745
7700 West Gate/Goldbridge,30.199403999999998,-97.82211600000001,78745
7405 West Gate/Grennock,30.201921000000002,-97.818402,78745
West Gate/Berkeley SE Corner,30.208626000000002,-97.814361,78745
West Gate/Aldford SE Corner,30.210706,-97.814332,78745
West Gate/Cornish SE Corner,30.212936,-97.814835,78745
6101 West Gate/Berkett,30.216251,-97.812864,78745
5907 West Gate/Coatbridge,30.217388,-97.809397,78745
5101 West Gate/Jones,30.225438,-97.803848,78745
Brodie Oaks Station (NB),30.23595,-97.792633,78704
2801 Lamar/Menchaca,30.244014,-97.781577,78704
Cameron/52nd,30.309887,-97.70885799999999,78723
Cameron/Broadmoor,30.311881,-97.706361,78723
Cameron/Corona,30.313184999999997,-97.704679,78723
5913 Cameron/Briarcliff,30.317126000000002,-97.699679,78723
Briarcliff/Nassau,30.316544,-97.697807,78723
1503 Briarcliff/Belfast,30.314906,-97.694362,78723
1941 Gaston Place/Wellington,30.312416,-97.68864599999999,78723
6210 North Hampton/Haney,30.312835999999997,-97.683749,78723
6311 North Hampton/Bristol,30.313627,-97.681795,78723
6801 Northeast/Lehigh,30.317657,-97.680661,78723
Loyola/Northeast,30.318399,-97.679735,78723
2705 Loyola/Willamette,30.315604999999998,-97.67470300000001,78723
2803 Loyola/Tulsa,30.314189000000002,-97.673348,78723
3115 Loyola/Tampa Cove,30.312046999999996,-97.670377,78723
5007 Loyola/Greensboro,30.306534000000003,-97.665444,78723
5213 Loyola/Bridgewater,30.304699,-97.664109,78723
6725 Loyola/Sandshof,30.298646999999995,-97.64518100000001,78724
Loyola/Cielo Vista,30.297837,-97.642748,78724
Northland/Marilyn,30.334546000000003,-97.751832,78731
Allandale/Shoalwood,30.33515,-97.7431,78756
Allandale/Burnet SW Corner,30.334740000000004,-97.74006999999999,78756
1601 Koenig/Arroyo Seco,30.332402000000002,-97.734922,78756
1317 Koenig/Woodrow,30.33063,-97.731225,78756
1205 Koenig/Grover,30.329871,-97.729641,78756
Koenig/Guadalupe SW Corner,30.323488,-97.724021,78751
111 Koenig/Avenue F,30.321928000000003,-97.71876400000001,78752
1101 Camino La Costa/La Posada,30.324081,-97.698549,78752
Camino La Costa/Atkinson,30.324264000000003,-97.695355,78752
7605 Cameron/Anderson,30.331463,-97.686986,78752
1476 Rutherford/Cameron,30.337940000000003,-97.68431,78753
1601 Rutherford/Cameron,30.33645,-97.68178,78754
1823 Centre Creek/Centre Park,30.336403999999998,-97.67649300000001,78754
1706 Centre Creek/Cross Park,30.33623,-97.67771,78754
8004 Cameron/Rutherford,30.33555,-97.68456,78753
7606 Cameron/Anderson,30.331229999999998,-97.68753000000001,78752
7400 Cameron/McKie,30.329209999999996,-97.69045,78752
1206 Camino La Costa/Grand Canyon,30.324279999999998,-97.69614,78752
1044 Camino La Costa/Calidad,30.324679999999997,-97.69930500000001,78752
200 Koenig/Avenue F,30.32198,-97.718379,78752
1120 Koenig/Grover,30.330053999999997,-97.729724,78757
1316 Koenig/Woodrow,30.330909000000002,-97.731445,78757
Koenig/Burnet NE Corner,30.334822999999997,-97.739641,78757
Allandale/Woodview,30.33547,-97.74381,78756
2608 Allandale/Cary,30.335520000000002,-97.74691999999999,78757
Northland/Bullard,30.334559999999996,-97.75026,78757
Northland/Balcones,30.337707,-97.75675,78731
1901 Blue Meadow/Bluff Springs,30.183426,-97.768629,78744
6805 Meadow Lake/Bucks Run,30.179042,-97.75308299999999,78744
6601 Meadow Lake/William Cannon,30.180708000000003,-97.75027800000001,78744
Stassney/Spoke,30.193534000000003,-97.75551999999999,78744
2006 Stassney/Ponciana,30.194941999999998,-97.757865,78744
1706 Stassney/IH 35,30.197437,-97.76164399999999,78744
3107 Red River/32nd,30.290665,-97.727112,78705
2005 Stassney/Ponciana,30.195032,-97.758297,78744
2433 Stassney/Palo Blanco,30.193568,-97.749836,78744
6608 Meadow Lake/William Cannon,30.180618,-97.750504,78744
6806 Meadow Lake/Bucks Run,30.179146999999997,-97.753231,78744
4412 Blue Meadow/Deep Circle,30.179721999999998,-97.758433,78744
2418 Blue Meadow/Bitteroot,30.1804,-97.761152,78744
1900 Blue Meadow/Bluff Springs,30.183658,-97.768765,78744
300 15th/San Jacinto,30.276325,-97.736917,78701
Rundberg/Parkfield,30.36768,-97.70662,78758
Quail Valley/Quail Hutch,30.377879999999998,-97.70795,78758
1612 Mearns Meadow/Quail Valley,30.378890000000002,-97.70653,78758
1720 Mearns Meadow/Robinwood,30.38059,-97.70824,78758
1906 Mearns Meadow/Little Pebble,30.38301,-97.71094000000001,78758
10623 Metric/Denton,30.385965000000002,-97.711828,78758
11001 Metric/Kramer,30.389321999999996,-97.709956,78758
11301 Metric/Braker,30.392761,-97.707868,78758
12195 Metric/Cedar Bend,30.408110999999998,-97.696895,78758
12301 Lamplight Village/Metric,30.411106,-97.695672,78758
12460 Lamplight Village/Alderbrook,30.415114000000003,-97.6965,78758
Lamplight Village/Metric NW Corner,30.41085,-97.695734,78758
12166 Metric/Cedar Bend,30.407778999999998,-97.69727900000001,78758
11510 Metric/Stonehollow,30.39488,-97.706822,78758
11212 Metric/Braker,30.391795000000002,-97.70878499999999,78758
Metric/Boyer,30.3836,-97.71304,78758
1907 Mearns Meadow/Little Pebble,30.38291,-97.7111,78758
1611 Mearns Meadow/Quail Valley,30.37867,-97.70659,78758
1601 Rutland/Mountain Quail,30.371209000000004,-97.709678,78758
1129 Rundberg/Quail Wood,30.366365000000002,-97.70407,78758
Rundberg/Collinfield,30.36529,-97.701797,78758
831 Rundberg/Quail Field,30.3637,-97.69848,78753
Rundberg/Slayton,30.361569,-97.694541,78753
6600 Silvermine/SH 71,30.246586999999998,-97.888607,78735
Oak Hill Plaza,30.234965999999996,-97.87694,78736
517 Lavaca/6th,30.268613000000002,-97.745114,78701
Austin History Center Station (NB),30.27042,-97.74444,78701
Lavaca/10th,30.272281,-97.743773,78701
Austin History Center Station (SB),30.271057,-97.745655,78701
500 Guadalupe/5th,30.268253,-97.74669,78701
Guadalupe/4th,30.267331,-97.747037,78701
6132 US 290/Parkwood,30.235661999999998,-97.855267,78735
Fenton/Scenic Brook,30.235646000000003,-97.898749,78736
5500 S 1st/Stassney,30.208753,-97.78142,78745
S. 1st/Mulberry,30.193782000000002,-97.79003399999999,78745
7230 S 1st/Meadow Lea,30.190183,-97.79057,78745
7816 S 1st/Dittmar,30.184112,-97.792603,78748
8116 S 1st/Mairo,30.181296000000003,-97.794775,78748
8201 S 1st/Mairo,30.180906,-97.794841,78748
7301 S 1st/Meadow Lea,30.189842,-97.790405,78745
6907 S 1st/Thelma,30.194695,-97.78927,78745
6611 1st/William Cannon,30.197336,-97.787836,78745
5603 S 1st/Stassney,30.208270000000002,-97.78150699999999,78745
Lavaca/4th,30.266689000000003,-97.745863,78701
220 6th/Lavaca,30.268793,-97.745075,78701
3608 Menchaca/Valley View,30.235222999999998,-97.784979,78704
Seminary Ridge/Manassas,30.198811,-97.81952,78745
Seminary Ridge/Shiloh,30.195669,-97.821554,78745
Seminary Ridge/Sweet Clover,30.1925,-97.823745,78745
Guidepost/Huebinger Pass,30.188354999999998,-97.827991,78745
Curlew/Guidepost,30.188516999999997,-97.829121,78748
9412 Curlew/Crownspoint,30.183032,-97.832409,78748
9614 Curlew/Monarch,30.180475,-97.833345,78748
Slaughter/Gail,30.176005,-97.83110699999999,78748
Slaughter/Briar Ridge,30.176221999999996,-97.830985,78748
9901 Curlew/Slaughter,30.177128999999997,-97.833854,78748
Curlew/Crownspoint,30.183117,-97.832175,78748
Guidepost/Marsh,30.188075,-97.827667,78748
8609 Leo/Davis,30.190177000000002,-97.825412,78745
8503 Seminary Ridge/Cameron Loop,30.191540000000003,-97.824587,78745
7703 Manassas/Whispering Oaks,30.199565000000003,-97.82012399999999,78745
7203 West Gate/Bryonhall,30.204834,-97.816514,78745
6905 West Gate/William Cannon,30.206976,-97.81541800000001,78745
Menchaca/William Cannon NE Corner,30.203378000000004,-97.806692,78745
9828 Great Hills/Research,30.394273,-97.748666,78759
Pavilion Park and Ride,30.426817,-97.757476,78759
9829 Great Hills/Jollyville,30.394037,-97.74835,78759
Capitol Station (SB),30.275021999999996,-97.744169,78701
ACC Northridge,30.400818,-97.703014,78758
Burnet/Mopac,30.402715999999998,-97.71756500000001,78758
11100 Burnet/Kramer,30.395964000000003,-97.72032,78758
810 Dean Keeton/Hampton,30.289184000000002,-97.730013,78705
500 Martin Luther King/Red River,30.279307,-97.73295,78705
Vic Mathias/Auditorium Shores Station (NB),30.259459000000003,-97.748994,78704
M L King/Trinity (Midblock),30.279262,-97.733535,78701
21st/Whitis (Midblock),30.283844000000002,-97.741124,78705
500 Pleasant Valley/5th,30.257216999999997,-97.710911,78702
East Austin Multi-Center,30.259425,-97.728034,78702
Lakeside Apartments,30.262025,-97.741105,78701
1117 Cesar Chavez/Waller,30.259919,-97.73285600000001,78702
Rundberg Station (NB),30.362616999999997,-97.697133,78753
Park/Crestview Jonestown,30.492932,-97.92296,78645
8032 Bar K Ranch (Lago Vista HS),30.48075,-97.97827099999999,78645
Crossbow/Paseo de Vaca,30.47157,-97.9911,78645
8033 Bar K Ranch (Lago Vista HS),30.480667999999998,-97.978167,78645
Dawn/Thunderbird,30.453482,-97.987134,78645
Park/Crestview Jonestown,30.492834999999996,-97.92283,78645
Bee Street/Main Street,30.502724,-97.914549,78645
1703 12th/Leona,30.273471999999998,-97.721367,78702
Cherrywood/Edgewood,30.287809999999997,-97.716078,78722
3719 Cherrywood/38th Half,30.291490000000003,-97.71368000000001,78722
6717 Cameron/Athletic,30.32283,-97.69413,78752
7068 Cameron/St Johns,30.325625,-97.692766,78752
800 St Johns/IH 35,30.332335999999998,-97.702985,78752
514 St Johns/Guadalupe,30.337813,-97.714297,78752
6904 Airport/Lamar,30.336202,-97.71824699999999,78752
7135 Lamar/St Johns,30.339261999999998,-97.717782,78752
601 St Johns/Guadalupe,30.337809999999998,-97.714621,78752
1011 St Johns/Bethune,30.3301,-97.69847,78752
7925 Rockwood/Ashdale,30.360488,-97.735877,78757
3400 Lamar/34th,30.30282,-97.74476800000001,78705
801 William Cannon/Cooper,30.197943,-97.790054,78745
701 William Cannon/1st,30.197073,-97.788053,78745
Slaughter/United Kingdom,30.174107,-97.809095,78748
Slaughter/Texas Oaks,30.174,-97.81487299999999,78748
1312 Slaughter/Bilbrook,30.173971,-97.816864,78748
HEB Slaughter/Menchaca,30.173811999999998,-97.82592199999999,78748
1401 Slaughter/Bilbrook,30.173682,-97.817308,78748
1213 Slaughter/David Moore,30.173728999999998,-97.81402,78748
1001 Slaughter/United Kingdom,30.173803000000003,-97.80945,78748
Braker/Swearingen,30.387659000000003,-97.69841,78758
1612 Braker/Bittern Hollow,30.389344,-97.701332,78758
1900 Braker/Metric,30.391553000000002,-97.70610400000001,78758
Braker/IBM,30.392667,-97.72595799999999,78758
10050 Great Hills/Research,30.393703000000002,-97.743884,78759
4001 Braker/Stonelake,30.397315999999996,-97.736242,78759
Braker/Burnet SW Corner,30.391127,-97.722228,78758
2001 Braker/Metric,30.392384999999997,-97.708773,78758
1613 Braker/Bittern Hollow,30.389101,-97.701391,78758
Braker/Milbanks,30.387124,-97.697959,78758
1624 Ohlen/Payton Gin,30.363709999999998,-97.71609000000001,78758
Metric/Sunhillow,30.399286,-97.703643,78758
Metric/Lamplight,30.410866,-97.69539300000001,78758
2501 Parmer/Tomanet,30.418591999999997,-97.70186700000001,78727
Burnet/Ashdale,30.358333000000002,-97.730386,78757
Burnet/Teakwood,30.360508000000003,-97.729588,78757
9037 Lamar/Cooper,30.360265000000002,-97.698477,78753
11213 Lamar/Braker,30.38168,-97.686359,78753
315 Braker/Hornsby,30.379967999999998,-97.6833,78753
751 Braker/Middle Fiskville,30.37763,-97.678405,78753
833 Braker/Joseph Clayton,30.376193,-97.674267,78753
11819 Shropshire/Rotherham,30.378569,-97.659881,78753
Shropshire/Tobler,30.380906,-97.661208,78753
Thompkins/Tuffit,30.384103000000003,-97.66232,78753
Thompkins/Peggotty,30.387545000000003,-97.660983,78753
12215 Thompkins/Yager,30.389819,-97.65961,78753
Stassney/Hummingbird,30.207126000000002,-97.77859000000001,78745
1026 Stassney/Emerald Forest,30.210778,-97.786836,78745
1400 Stassney/Radam,30.212318,-97.79095600000001,78745
Stassney/Cork Path,30.217002,-97.799908,78745
2400 Stassney/Fernview,30.218327000000002,-97.803096,78745
West Gate/Indio,30.222838,-97.805563,78745
2313 Stassney/Fernview,30.218140000000002,-97.80326,78745
2035 Stassney (Cherry Creek Plaza),30.216159,-97.799017,78745
1701 Stassney/Rose Hill,30.213644,-97.794264,78745
1401 Stassney/Radam,30.212061,-97.790959,78745
1101 Stassney/Emerald Forest,30.210625,-97.78725899999999,78745
405 W Stassney/Hummingbird,30.207058,-97.77896700000001,78745
2301 Ohlen/Bowling Green,30.362571000000003,-97.728237,78757
Ohlen/Contour,30.362820000000003,-97.71887,78757
1649 Ohlen/Research,30.363570000000003,-97.71592,78758
Northgate/Rundberg,30.371518,-97.715819,78758
1709 Rundberg/Singing Quail,30.370161,-97.712704,78758
Rundberg/Hunters Trace,30.368872999999997,-97.71005699999999,78758
Parkfield/Rundberg,30.367379999999997,-97.70647,78758
1403 Rundberg/Marlborough,30.351563,-97.677494,78753
Rundberg/Cameron,30.349891999999997,-97.676412,78753
9100 Cameron/Rundberg,30.347161,-97.677226,78753
Cameron/Ferguson,30.346131,-97.677249,78753
Rundberg/Marlborough,30.351814,-97.67747,78753
400 Rundberg/Slayton,30.362340000000003,-97.69526,78753
832 Rundberg/Lamar,30.363939000000002,-97.698486,78753
Rundberg/Mearns Meadow,30.364971999999998,-97.700675,78758
1130 Rundberg/Quail Wood,30.36657,-97.70404,78758
Rundberg/Mountain Quail,30.369253999999998,-97.710359,78758
9120 Northgate/Rundberg,30.370738,-97.71650799999999,78758
2306 Ohlen/Bowling Green,30.362828000000004,-97.72843,78757
8118 Burnet/Steck,30.360468,-97.729812,78757
200 William Cannon/Starstreak,30.193894,-97.780466,78745
William Cannon/Sunstrip,30.19479,-97.78349,78745
William Cannon/1st,30.197499,-97.78834499999999,78745
120 William Cannon/Mount Carrell,30.199561,-97.795776,78745
William Cannon/Woodhue,30.200740999999997,-97.79945,78745
1900 William Cannon/Cannonleague,30.202551,-97.80479,78745
William Cannon/Shier,30.203521999999996,-97.808472,78745
2810 William Cannon/Deaton Hill,30.208170000000003,-97.817734,78745
William Cannon/Stage Coach,30.211536,-97.82521700000001,78745
3316 William Cannon/Lost Valley,30.212637,-97.827439,78745
7000 Brodie/Bannockburn,30.213001000000002,-97.83105,78749
7600 Brodie/Harpers Ferry,30.207183,-97.834986,78749
3706 Eskew/Croftwood,30.205019,-97.840085,78749
3910 Eskew/Wakefield,30.205871999999996,-97.843088,78749
4200 Eskew/Mauai,30.207821000000003,-97.846452,78749
4408 Eskew/Copano,30.209421999999996,-97.848776,78749
Convict Hill/Brush Country,30.217449,-97.846951,78749
5616 Convict Hill/Wagon Train,30.222453,-97.861693,78749
Convict Hill/John Blocker,30.223817999999998,-97.864469,78749
6016 Convict Hill/Oliver Loving,30.224997,-97.86685899999999,78749
6115 Convict Hill/Oliver Loving,30.224964,-97.86716700000001,78749
5801 Convict Hill/Cannon Mountain,30.223318,-97.863788,78749
5701 Convict Hill/Wagon Train,30.222490999999998,-97.86205600000001,78749
5401 Convict Hill/Beckett,30.220475,-97.85798,78749
7704 Copano/Copperas,30.213340999999996,-97.850551,78749
7814 Copano/Sarasota,30.210949,-97.84958,78749
4403 Eskew/Copano,30.209294,-97.848453,78749
Eskew/Mauai,30.207733,-97.846601,78749
3911 Eskew/Tree House,30.205755,-97.843159,78749
3709 Eskew/Croftwood,30.204891999999997,-97.840165,78749
7613 Brodie/Harpers Ferry,30.206736,-97.834965,78745
7201 Brodie/Convict Hill,30.211188,-97.83185300000001,78745
3421 William Cannon/Brodie,30.213229,-97.829481,78745
3207 William Cannon/Stagecoach,30.210944,-97.82455,78745
2701 William Cannon/West Gate,30.207196999999997,-97.81577800000001,78745
1945 William Cannon/Menchaca,30.202716,-97.80623299999999,78745
1401 William Cannon/Woodhue,30.200295,-97.799002,78745
1107 William Cannon/Mount Carrell,30.199251,-97.79519599999999,78745
1011 William Cannon/Emerald Forest,30.199075,-97.793338,78745
401 William Cannon/Bill Hughes,30.195674,-97.785337,78745
Travis Correctional Facility,30.197840000000003,-97.645546,78617
3103 SH 71/Cheviot,30.205035,-97.642589,78617
2777 SH 71/Golf Course,30.210895,-97.654067,78617
7200 Riverside/Yellow Jacket,30.221045,-97.69468,78741
6810 Riverside/Frontier Valley,30.222831,-97.698094,78741
6600 Riverside/Vargas,30.224038,-97.700825,78741
Montopolis/Santos,30.22867,-97.700989,78741
1207 Montopolis/Larch,30.232656,-97.698459,78741
911 Montopolis/Cirulo de Amistad,30.234794,-97.697069,78741
Montopolis/Monsanto,30.238996000000004,-97.694369,78741
821 Airport/Glissman,30.256542,-97.69284,78721
1123 Airport/Springdale,30.26537,-97.69532,78721
1135 Airport/Goodwin,30.26848,-97.69626,78721
1149 Airport/Oak Springs,30.27335,-97.69773,78721
1835 Airport/Martin Luther King,30.282339,-97.703722,78721
4335 Airport/Parkwood,30.30041,-97.71246,78722
4613 Airport/46th,30.305369,-97.71576999999999,78751
4821 Airport/48th Half,30.308809000000004,-97.715517,78751
Huntland/Airport,30.330440000000003,-97.715281,78752
Anderson/Watson,30.349206,-97.716025,78757
Anderson/Lazy,30.351463,-97.720782,78758
2114 Anderson/Hardy,30.354996999999997,-97.728269,78757
7905 Anderson Square/Anderson,30.350355,-97.716448,78758
8027 Anderson Square/Research,30.352341,-97.715154,78757
4600 Airport/46th,30.305103000000003,-97.716029,78751
4328 Airport/Crestwood,30.299909000000003,-97.712142,78722
3822 Airport/38th Half,30.288135999999998,-97.707262,78722
2204 Airport/Manor,30.285560999999998,-97.706075,78722
1900 Airport/Martin Luther King,30.282694,-97.704222,78722
1400 Airport/14th Half,30.279033000000002,-97.701939,78702
1198 Airport/12th,30.276489,-97.700213,78702
1144 Airport/Oak Springs,30.27252,-97.69775,78721
1134 Airport/Goodwin,30.26833,-97.69643,78721
Airport/Shady Lane,30.259359999999997,-97.69377,78721
760 Airport/Glissman,30.254459999999998,-97.6928,78721
302 Montopolis/Del Monte,30.242008000000002,-97.692486,78741
Montopolis/Walker,30.238732000000002,-97.69473599999999,78741
900 Montopolis/Felix,30.235453999999997,-97.696831,78741
1412 Montopolis/Marigold,30.229409000000004,-97.700695,78741
1814 Montopolis/Kasper,30.225821000000003,-97.702985,78741
6605 Riverside/Vargas,30.223717999999998,-97.70075600000001,78741
6903 Riverside/Maxwell,30.22227,-97.69749300000001,78741
Riverside/Yellow Jacket,30.22077,-97.694749,78741
Riverside/Uphill,30.219599,-97.692736,78741
3320 FM 973/SH 71,30.200884000000002,-97.640493,78617
3518 Bill Price/FM 973,30.1988,-97.642815,78617
2730 7th/Pleasant Valley,30.260365999999998,-97.710025,78702
Victory/Prather,30.235810999999998,-97.790086,78704
2301 San Jacinto/23rd,30.28555,-97.733531,78705
1017 Camino La Costa/La Posada,30.325509999999998,-97.70152,78752
201 Dean Keeton/University,30.289534000000003,-97.739302,78705
3600 North Hills/Village Center,30.351595,-97.756663,78731
4001 Speedway/40th,30.303334000000003,-97.731711,78751
6th/Campbell,30.276004999999998,-97.76454,78703
Kermit/Jasper,30.287388,-97.78236899999999,78703
Wickersham/Elmont,30.233631,-97.72009200000001,78741
2316 Pleasant Valley/Anken,30.229359999999996,-97.726739,78741
Disch-Falk Field,30.279195,-97.72725600000001,78722
45th / Bennett,30.303935,-97.717598,78751
2200 Burton/Oltorf,30.231271000000003,-97.733733,78741
6917 Wentworth/Colony Loop,30.295796000000003,-97.62803100000001,78724
LBJ High School,30.314586,-97.656099,78724
3513 Oak Springs/Gunter,30.27375,-97.694929,78721
Oak Springs/Mercer,30.273634,-97.69279300000001,78721
Rosewood/Chestnut,30.270419,-97.715,78702
Rosewood/Alamo,30.270096000000002,-97.717001,78702
1422 Rosewood/Angelina,30.268978000000004,-97.724138,78702
1200 11th/Lydia,30.268704,-97.727634,78702
400 23rd/San Jacinto,30.285363,-97.733502,78705
9510 Menchaca/Monarch,30.176806,-97.822278,78748
9700 Menchaca/Slaughter,30.175459000000004,-97.822734,78748
7901 S 1st/Dittmar,30.183697,-97.79269000000001,78748
7200 S 1st/Prince Valiant,30.191739000000002,-97.790498,78745
8318 S 1st/Great Britain,30.179602000000003,-97.79606,78748
818 Slaughter/Palace,30.174142,-97.80635799999999,78748
815 Slaughter/Palace,30.173859000000004,-97.80599699999999,78748
8515 S 1st/Hyde Park,30.176671000000002,-97.79769399999999,78748
8313 S 1st/Great Britain,30.179634999999998,-97.795803,78748
7201 S 1st/Prince Valiant,30.191724,-97.790325,78745
7300 Menchaca/Matthews,30.198694,-97.808351,78745
7504 Menchaca/Lear,30.196326000000003,-97.80986,78745
7800 Menchaca/Beauregard,30.193853999999998,-97.811433,78745
8200 Menchaca/Shiloh,30.190828000000003,-97.813363,78745
9304 Menchaca/Sedgemoor,30.179515000000002,-97.820578,78748
9303 Menchaca/Sedgemoor,30.179446000000002,-97.82024200000001,78748
8125 Menchaca/Breyfogle,30.191575,-97.812505,78745
Menchaca/Keilbar,30.195119000000002,-97.810248,78745
Research/Jamestown,30.355308,-97.714862,78753
Research/Clearfield,30.357315999999997,-97.715514,78758
8523 Research/Fairfield,30.359988,-97.716313,78758
8601 Research/Ohlen,30.362273,-97.716941,78758
Research/Northgate,30.368858000000003,-97.718513,78758
Research/Metric,30.371864000000002,-97.72255799999999,78758
10201 Jollyville/Great Hills,30.395978000000003,-97.749877,78759
4815 Braker/Jollyville,30.400576,-97.748014,78759
11215 Research/Balcones Woods,30.408812,-97.744632,78759
11411 Research/Windriver Apts,30.412532000000002,-97.745139,78759
11689 Research/Duval,30.417953000000004,-97.746152,78759
Research/Riata Apts,30.427020000000002,-97.75386999999999,78727
12550 Research/Oak Knoll,30.43024,-97.76044,78727
10409 Lake Creek/Mellow Meadows,30.46064,-97.79704,78750
11101 Lakeline Mall/Pecan Park,30.472089,-97.801043,78750
10204 Lake Creek/Pecan Park,30.462436999999998,-97.792001,78729
10323 Lake Creek/US 183,30.46091,-97.79649,78750
Research Blvd/Barrington,30.432985,-97.768027,78759
12574 Research/Jollyville,30.429237,-97.760501,78759
11700 Research/Duval,30.419990000000002,-97.74757199999999,78759
11590 Research/Thunder Creek,30.414920000000002,-97.746612,78759
11100 Research/Balcones Woods,30.406858000000003,-97.745727,78759
Braker/Research NW Corner,30.400813,-97.74724,78759
10051 Great Hills/Research (Target),30.393337,-97.743545,78759
10001 Capital of Texas/Stonelake,30.390475,-97.73889399999999,78759
Research/Ohlen,30.364075,-97.718149,78757
8500 Research/Fairfield,30.359634999999997,-97.716748,78757
924 41st/IH 35,30.298908,-97.720539,78751
Riverside/Congress FS,30.256196000000003,-97.746021,78704
205 Riverside/Congress,30.254846,-97.744793,78704
Melrose Place Apt,30.237369,-97.7135,78741
Convict Hill/Latta/Brush Country,30.216888,-97.846068,78749
Braker/Lamar NE Corner,30.381776000000002,-97.685877,78753
12001 Amhearst/Duval,30.412315999999997,-97.72152700000001,78759
Salt Springs/Tara,30.163611,-97.742899,78744
Barton Creek Mall (Sears),30.256415000000004,-97.80931,78746
Walmart Norwood,30.339404,-97.690619,78753
2215 Rosewood/Chestnut,30.27025,-97.71522,78702
Dean Keeton/Speedway,30.289286999999998,-97.73607,78705
Travis County Precinct 4,30.19557,-97.693747,78744
Lavaca/9th,30.271378000000002,-97.74411500000001,78701
504 Riverside/Newning,30.253004999999998,-97.74294499999999,78704
Soco Station (NB),30.248772,-97.749826,78704
Soco Station (SB),30.248134000000004,-97.750367,78704
Oltorf Station (NB),30.239554,-97.752826,78704
Oltorf/Congress,30.237921000000004,-97.752284,78704
121 Oltorf/Euclid (HEB),30.239387,-97.754655,78704
Oltorf Station (SB),30.238013,-97.75438299999999,78704
1311 S 1st/Elizabeth,30.250973,-97.754463,78704
Barton Springs/Lamar,30.260536,-97.75739200000001,78704
Barton Springs Station (SB),30.260070000000002,-97.75895200000001,78704
615 Lamar/Bluff,30.258834999999998,-97.758983,78704
1901 Lamar/Mary,30.24956,-97.76700100000001,78704
1501 Barton Springs/Jessie,30.261415999999997,-97.76013,78704
Barton Springs (Zilker Park),30.266126,-97.768413,78746
2221 Barton Springs (Zilker),30.267964000000003,-97.772453,78746
Barton Springs/Zilker,30.265878999999998,-97.767853,78746
220 Lamar/B R Reynolds,30.268227000000003,-97.755652,78703
219 Lamar/Sandra Muraida,30.268224,-97.755414,78703
600 Lamar/6th,30.272037,-97.753855,78703
5th/West Lynn,30.273605,-97.76324100000001,78703
1000 Lamar/10th,30.275103,-97.752332,78703
1117 Lamar/12th,30.276740999999998,-97.751339,78703
1200 Lamar/12th,30.276963000000002,-97.751452,78703
27th/Whitis,30.292003,-97.740219,78705
Speedway/44th,30.308090999999997,-97.72868100000001,78751
Speedway/38th,30.299792,-97.734149,78705
3201 Speedway/33rd,30.297220000000003,-97.73558100000001,78705
31st/Grooms,30.294365999999997,-97.73586800000001,78705
31st/Walling,30.294287,-97.73558100000001,78705
22nd/Pearl,30.285285,-97.746666,78705
San Gabriel/25 1/2,30.29005,-97.747693,78705
26th/Rio Grande,30.290696,-97.744249,78705
26th/Pearl,30.29086,-97.746437,78705
3004 Lamar/30th Half,30.299542,-97.746769,78705
3913 Medical/39th Half,30.307741999999998,-97.742786,78756
Medical/42nd,30.311491999999998,-97.742464,78756
3617 Bull Creek/Jefferson,30.309849,-97.75104300000001,78731
1951 San Jacinto/Trinity,30.280390999999998,-97.733979,78705
2001 San Jacinto/20th,30.281645,-97.733191,78705
Robert Dedman/Trinity,30.287351,-97.730075,78705
Red River/Dean Keeton,30.28758,-97.72652,78705
3409 Red River/Harris,30.293112,-97.725448,78705
4510 Duval/45th,30.307337,-97.724462,78751
3508 Duval/38th,30.298182,-97.730215,78705
2400 Lamar/24th,30.288718,-97.752825,78703
2327 Lamar/24th,30.288404999999997,-97.752709,78705
1900 Lamar/Martin Luther King,30.283673999999998,-97.752333,78703
1801 Lamar/Martin Luther King,30.283337,-97.751717,78701
2206 Enfield/Meriden,30.287547999999997,-97.766813,78703
2207 Enfield/Kent,30.287409999999998,-97.76683,78703
2531 Lake Austin/Dumas,30.279378,-97.774279,78703
Mopac/Nature Center,30.269505,-97.776342,78746
Mopac/Zilker,30.268571,-97.776574,78746
Rosewood/Leona,30.269427,-97.72125,78702
Rosewood/Salina,30.269475,-97.720098,78702
Rosewood/Chicon,30.269697999999998,-97.719604,78702
1321 12th/Angelina,30.272878000000002,-97.725052,78702
700 Cesar Chavez/Red River,30.261584999999997,-97.737717,78701
7th/Northwestern,30.261408000000003,-97.716495,78702
Comal/Manor,30.282691999999997,-97.726034,78722
1255 Martin Luther King/IH 35,30.278682,-97.72723,78702
Comal/21st,30.280784000000004,-97.725615,78722
Disch-Falk/Comal,30.280666999999998,-97.726905,78722
Dean Keeton/Lafayette,30.284125,-97.721478,78722
Cherrywood/Manor,30.285131,-97.717815,78722
2604 Manor/Stafford,30.284989000000003,-97.715242,78722
2201 Airport/Manor,30.285459999999997,-97.70572299999999,78723
Manor/Tillery,30.286884999999998,-97.703204,78723
3205 Martin Luther King/Airport,30.282536999999998,-97.703456,78721
3014 Martin Luther King/Airport,30.282553000000004,-97.70451800000001,78722
12th/Oak Grove,30.276207,-97.70414,78702
Burnet/47th,30.317747999999998,-97.740022,78756
Allandale Station (SB),30.333765999999997,-97.740096,78756
2401 S 5th/Oltorf,30.243472999999998,-97.76442,78704
2406 S 5th/Oltorf,30.243364,-97.76459799999999,78704
2006 S 5th/Brodie,30.246802000000002,-97.763104,78704
4205 Victory/Ben White,30.232805,-97.7907,78704
4206 Victory/Ben White,30.232792,-97.79091700000001,78704
2317 Panther/Victory,30.238133,-97.788756,78704
2300 Panther/Lamar,30.238521999999996,-97.789058,78704
2555 Western Trails/Sagebrush,30.229457,-97.798807,78745
2700 Western Trails/Sagebrush,30.229104,-97.8005,78745
4631 West Gate/Western Trails,30.229915999999996,-97.800895,78745
Stassney/Westgate,30.218687,-97.805931,78745
2000 Stassney/Menchaca,30.215730999999998,-97.797961,78745
1821 Stassney/Menchaca,30.214594,-97.79633000000001,78745
1820 Stassney/Menchaca,30.214938,-97.796432,78745
5501 Menchaca/Stassney,30.216254,-97.79678100000001,78745
4711 Menchaca/Frontier,30.22403,-97.791983,78745
4611 Menchaca/Forest Hill,30.226246000000003,-97.790564,78745
4413 Menchaca/Redd,30.228562,-97.78908100000001,78745
Pack Saddle Pass/Ben White,30.231054999999998,-97.792199,78745
Ann Richards School,30.235809999999997,-97.789879,78704
2020 Ben White/Menchaca,30.230638,-97.788524,78704
4029 Banister/Ben White,30.228599,-97.778699,78704
Congress/Dunlap,30.224429999999998,-97.763196,78704
Congress/Ben White,30.224457,-97.76287099999999,78704
4735 Congress/Sheraton,30.214378999999997,-97.76914599999999,78745
Congress/Wasson,30.212003000000003,-97.77068,78745
118 Stassney/Congress,30.205325,-97.77542199999999,78745
119 Stassney/Congress,30.205187,-97.775706,78745
720 Stassney/1st,30.208996999999997,-97.78236600000001,78745
1706 Stassney/Rose Hill,30.214017,-97.794515,78745
1400 Pleasant Valley/Lakeshore,30.240160999999997,-97.71876999999999,78741
1225 Pleasant Valley/Elmont,30.239813,-97.718786,78741
Elmont/Pleasant Valley,30.238125,-97.71834799999999,78741
1600 Wickersham/Elmont,30.235821,-97.718624,78741
1820 Pleasant Valley (HEB),30.235235999999997,-97.72198,78741
Oltorf/Burleson,30.231078000000004,-97.73530600000001,78741
2121 Burton/Oltorf,30.23152,-97.733408,78741
Willow Creek/Woodland,30.2331,-97.728953,78741
Oltorf/Burton,30.230285,-97.732372,78741
2316 Pleasant Valley/Sheringham,30.231184999999996,-97.72558199999999,78741
1900 Crossing Place/Riverside,30.232408000000003,-97.717232,78741
1901 Crossing Place/Riverside,30.232153000000004,-97.717055,78741
1501 Crossing Place/Faro,30.235015999999998,-97.714646,78741
1500 Crossing Place/Faro,30.234887,-97.71506,78741
Montopolis/El Mirando,30.240245,-97.693567,78741
2821 Montopolis/Oltorf,30.215816999999998,-97.70926,78741
6000 Oltorf/Montopolis,30.217714,-97.715542,78741
5301 Oltorf/Alvin Devane,30.219883000000003,-97.720359,78741
4120 Freidrich/Woodward,30.213561,-97.745855,78744
Woodward/Ben White SW Corner,30.214640999999997,-97.744698,78744
3300 Parker/Timber Ridge,30.22216,-97.742228,78741
3301 Parker/Timber Ridge,30.222918,-97.7421,78741
3004 Parker/Timber Ridge,30.224895,-97.742138,78741
ABIA Lower Level,30.202744,-97.665653,78617
1715 Stassney/IH 35,30.197198999999998,-97.761558,78744
2523 Stassney/Chaparral,30.193724,-97.747107,78744
Pleasant Valley/Creek Bend,30.18276,-97.745408,78744
1700 William Cannon/Bluff Springs,30.189202,-97.767485,78744
2015 William Cannon/Elm Creek,30.187471000000002,-97.762532,78744
2283 William Cannon/Stoneleigh,30.1864,-97.759149,78744
2300 William Cannon/Stoneleigh,30.186484999999998,-97.758728,78744
William Cannon/Branchwood,30.183639000000003,-97.75447700000001,78744
William Cannon/Rockridge,30.184074,-97.754703,78744
4812 William Cannon/Meadow Lake,30.181192,-97.75050999999999,78744
2114 Blue Meadow/Blue Dawn,30.181729999999998,-97.764323,78744
2203 Blue Meadow/Blue Dawn,30.181534999999997,-97.76431,78744
7200 Salt Springs/Orleans,30.168547999999998,-97.739677,78744
Salt Springs/Asa,30.16528,-97.741884,78744
Salt Springs/Orange Blossom,30.166767,-97.740756,78744
812 Stassney/IH 35,30.200390000000002,-97.76639399999999,78745
811 Stassney/Mira,30.200052000000003,-97.76666800000001,78745
Stassney/Mira,30.202351,-97.770825,78745
407 Stassney/Congress,30.202766999999998,-97.77176899999999,78745
6610 Congress/Eberhart,30.194215000000003,-97.778449,78745
Pleasant Hill Station (NB),30.194535,-97.778085,78745
William Cannon/Skynook,30.193478999999996,-97.780305,78745
609 Stassney/1st,30.208097,-97.781018,78745
5802 South 1st/Stassney,30.205367,-97.78315,78745
6800 S 1st/William Cannon,30.196414,-97.788391,78745
William Cannon/Bill Hughes,30.196488000000002,-97.786118,78745
8600 S 1st/Hyde Park,30.176287,-97.79814,78748
8905 S 1st/Slaughter,30.173403000000004,-97.798751,78748
Slaughter/Menchaca,30.17359,-97.822771,78748
Slaughter/Riddle,30.173945,-97.827352,78748
8700 Menchaca/Davis,30.185353999999997,-97.816843,78748
8509 Menchaca/Dittmar,30.186653999999997,-97.815648,78745
William Cannon/Whispering Oaks,30.203663,-97.809228,78745
7317 Menchaca/Gaines Mill,30.197956,-97.808456,78745
6110 West Gate/Luton,30.215531,-97.813866,78745
William Cannon/Deaton Hill,30.207901,-97.817777,78745
2616 William Cannon/West Gate,30.207075,-97.81479,78745
6900 West Gate/William Cannon,30.206182000000002,-97.816037,78745
8300 West Gate/Siskin,30.196016999999998,-97.82923000000001,78745
Curlew/Kentish Drive,30.187172999999998,-97.829818,78748
Curlew/Monarch,30.180090999999997,-97.83335799999999,78748
Eskew/Brodie,30.203390000000002,-97.837717,78749
3101 William Cannon/Ranch,30.209995000000003,-97.822172,78745
3100 William Cannon/Ranch,30.210328999999998,-97.82227900000001,78745
Copano/Clarno,30.211939,-97.84982,78749
Latta/Islander,30.215678999999998,-97.84907700000001,78749
4922 Convict Hill/Flaming Oak,30.217987,-97.852494,78749
4923 Convict Hill/Flaming Oak,30.217965999999997,-97.852755,78749
5125 Convict Hill/Woodcreek,30.218895,-97.854694,78749
Convict Hill/Woodcreek,30.219087,-97.854773,78749
6701 Silvermine/SH 71,30.245996,-97.88864699999999,78736
8403 Red Willow/Smokey Hill,30.241590000000002,-97.894279,78736
8310 Red Willow/Smokey Hill,30.241604,-97.89409,78736
8525 Red Willow/Bargamen,30.240953,-97.898066,78736
8530 Red Willow/Selway,30.240596000000004,-97.898425,78736
Red Willow/Fenton,30.236772,-97.900898,78736
Fenton/Red Willow,30.236672,-97.900803,78736
10935 Lakeline Mall/US 183,30.473343,-97.797676,78717
Lakeline Mall/Lake Creek,30.474983,-97.794127,78729
4702 Lamar/Dudmar,30.233588,-97.809163,78735
4970 US 290/Brodie,30.233713,-97.819058,78735
6900 Scenic Brook/SH 71,30.237011,-97.878699,78736
6905 Scenic Brook/SH 71,30.236888,-97.878511,78736
Scenic Brook/Hanbridge,30.237524,-97.893567,78736
Scenic Brook/Kirkham,30.237721999999998,-97.892904,78736
Scenic Brook/Banpass,30.235646000000003,-97.897868,78736
Oak Hill Park and Ride,30.234439000000002,-97.862645,78735
Mopac/Wallingwood,30.265766999999997,-97.78112800000001,78746
1300 Spyglass/Wallingwood,30.261146000000004,-97.78662299999999,78746
1788 Spyglass/Barton Skyway,30.259147,-97.79103,78746
Mopac/Barton Skyway,30.262083,-97.78957,78746
1010 Walsh Tarlton/Bee Caves,30.2736,-97.80122,78746
1007 Walsh Tarlton/Bee Caves,30.273889,-97.800812,78746
2701 Walsh Tarlton/Capital of Texas,30.258478000000004,-97.811286,78746
4219 Bull Creek/Jackson,30.316743,-97.754711,78731
4701 Bull Creek/Perry,30.323119000000002,-97.75182,78731
820 Koenig/Lamar,30.326578,-97.726875,78752
Koenig/Guadalupe,30.323545000000003,-97.723626,78752
4801 Guadalupe/46th,30.314726,-97.73035300000001,78751
4903 Guadalupe/46th,30.316531,-97.72913,78751
4800 Sunshine (Criss Cole Rehab),30.317281,-97.735373,78756
Woodrow/Dartmouth,30.348038,-97.723558,78757
3607 Manor/Pershing,30.289421,-97.697681,78723
4316 Lamar/43rd,30.311348,-97.73919000000001,78756
915 45th/Red River,30.304396999999998,-97.718869,78751
961 Springdale/Govalle,30.264596,-97.696074,78721
Lamar/Meadowlark,30.351879999999998,-97.70748,78753
8950 Lamar/Cooper,30.359247999999997,-97.69931600000001,78753
Rundberg/Lamar,30.362762,-97.69653000000001,78753
Rundberg Station (SB),30.363669,-97.69684000000001,78753
9717 Lamar/Rutland,30.366232,-97.695082,78753
9800 Lamar/Longspur,30.367568,-97.694603,78753
Masterson Station (NB),30.372083,-97.691817,78753
Lamar/Applegate,30.374485999999997,-97.690432,78753
Chinatown Station (NB),30.379385,-97.68768299999999,78753
Braker/Motheral,30.380984,-97.684984,78753
314 Braker/Hornsby,30.380222999999997,-97.683325,78753
200 Braker/Oakwood,30.378569,-97.679983,78753
700 Braker/Pollyanna,30.377449,-97.67741099999999,78753
Cameron/Cross Park,30.343606,-97.67883499999999,78753
6205 Burnet/Romeria,30.337429999999998,-97.73931,78757
Ohlen Station (NB),30.363467,-97.72878399999999,78757
Burnet/Colfax,30.367565999999997,-97.727715,78757
Crossroads Station (NB),30.370976000000002,-97.72681700000001,78757
Crossroads Station (SB),30.371234,-97.727017,78757
Ohlen Station (SB),30.363467,-97.72905,78757
Mesa/Paint Rock,30.366359999999997,-97.7611,78731
Burnet/Twin Oaks,30.340324,-97.739058,78757
Burnet/Rockwood,30.367141999999998,-97.728061,78757
Anderson/Gault,30.350302000000003,-97.71835899999999,78758
Airport/Shady,30.259748,-97.693656,78721
400 Martin Luther King/Trinity,30.279666,-97.734311,78705
Koenig/Arroyo Seca,30.332303999999997,-97.73441700000001,78757
2607 Allandale/Cary,30.33533,-97.74700000000001,78756
Cameron/Glencrest,30.319114000000003,-97.69749,78723
801 Clyde Littlefield/Red River,30.283302000000003,-97.728684,78701
1st/Bronco,30.474202000000002,-97.973709,78645
Martin Luther King/Scottsdale,30.286309000000003,-97.678798,78723
Tannehill/Webberville,30.284396,-97.670845,78721
Cameron/Ridgehaven,30.315381,-97.70186,78723
6400 North Hampton/Bristol,30.3138,-97.68175600000001,78723
4701 Loyola/Manor,30.309468,-97.666739,78723
5627 Loyola/Millrace,30.302821999999995,-97.657453,78724
5911 Loyola/Crystalbrook,30.302553999999997,-97.653518,78724
Loyola/Johnny Morris SE Corner,30.299874,-97.64784300000001,78724
Loyola/Johnny Morris NE Corner,30.29995,-97.64730300000001,78724
6809 Wentworth/Riverstone,30.294894,-97.630057,78724
Colony Loop/Decker,30.294340999999996,-97.62633000000001,78724
Slaughter/1st,30.173762,-97.80117,78748
1518 Barton Springs/Jessie,30.261763000000002,-97.760486,78704
3505 Lamar/37th,30.303981,-97.743764,78705
Steck/Shoal Creek,30.365507,-97.73693399999999,78757
Steck/Daleview,30.365892,-97.737465,78757
Balcones/Northland,30.336959999999998,-97.75756,78731
North Hills/Valleyside,30.349220000000003,-97.75418,78731
3535 Greystone/Wood Hollow,30.358258000000003,-97.751138,78731
10135 Lake Creek/US 183,30.462312,-97.791684,78729
10007 Lake Creek/Pecan Park,30.467978000000002,-97.787873,78729
Lake Creek/FM 620,30.468861999999998,-97.78925500000001,78717
Museum Station (NB),30.2793,-97.74119,78701
Jollyville/Balcones Woods,30.407651,-97.747776,78759
Balcones Woods/Research,30.407777000000003,-97.74702099999999,78759
4609 12th/Springdale,30.278603999999998,-97.686295,78721
12th/Luna,30.27828,-97.69077,78721
3500 12th/Greenwood,30.277482,-97.69686899999999,78721
13701 McCallen/Center Ridge,30.417607,-97.661907,78660
12801 McCallen/Parmer,30.405921999999997,-97.663623,78753
Braker/Burnet NW Corner,30.391615,-97.723148,78758
Research/Hamilton,30.401654999999998,-97.74524699999999,78759
Research/Technology,30.43266,-97.76536,78727
Research/Burnet,30.37228,-97.72535,78757
Riverside/Airport Commerce,30.220133,-97.693126,78741
11300 Lamar/Braker,30.382734000000003,-97.686052,78753
Lamar/Northbend,30.385309999999997,-97.68473,78753
Lamar/Little Oak,30.38857,-97.68337,78753
Lamar/Yager,30.402463,-97.678967,78753
1600 Centre Creek/Rutherford,30.335382,-97.68026,78754
1605 Centre Creek/Rutherford,30.335254,-97.67997,78754
Fisher-Rosemount Systems,30.336920000000003,-97.68223,78754
7911 Cameron/Anderson,30.33485,-97.68471,78754
7401 Cameron/Coronado Hills,30.329295000000002,-97.69004100000001,78752
7209 Cameron/St Johns,30.326543,-97.69184,78752
1322 St Johns/Cameron,30.326359999999998,-97.69270300000001,78752
1016 Camino La Costa/La Posada,30.327108000000003,-97.70201899999999,78752
801 St Johns/Bennett,30.331120000000002,-97.7006,78752
8100 Cameron Road,30.337709999999998,-97.68437,78753
1207 Rundberg/Teasdale,30.353725,-97.681067,78753
1037 Rundberg/Fiskville Cemetery,30.355078000000002,-97.68316800000001,78753
9306 Georgian/Rundberg,30.360445000000002,-97.693759,78753
Rundberg/Singing Quail,30.371433000000003,-97.714218,78758
1830 Colony Creek/Northgate,30.369704,-97.716323,78758
1729 Colony Creek/Northgate,30.369189000000002,-97.715046,78758
9030 Galewood/Colony Creek,30.36748,-97.71512,78758
9029 Galewood/Colony Creek,30.367504999999998,-97.714901,78758
8910 Galewood/Payton Gin,30.366009000000002,-97.71605500000001,78758
8919 Galewood/Payton Gin,30.36617,-97.715754,78758
Ohlen/Research,30.362927000000003,-97.71902,78757
1204 38th Half/Hollywood,30.294262,-97.718216,78722
38th Half/Lafayette,30.292990000000003,-97.71598,78722
4311 Springdale/Martin Luther King,30.286365999999997,-97.682192,78723
4609 Springdale/Touchstone,30.289398,-97.68025,78723
Berkman/US 290 SW Corner,30.319884000000002,-97.68919,78723
4911 Menchaca/Jones,30.222510999999997,-97.79294499999999,78745
9101 Burnet/Research,30.374709000000003,-97.72590799999999,78758
Burnet/Waterford Center,30.375734,-97.72596300000001,78758
Rutland Station (SB),30.3836,-97.72419000000001,78758
Rutland Station (NB),30.379496999999997,-97.724857,78758
10508 Burnet/Braker,30.389539000000003,-97.722482,78758
10701 Burnet/Braker,30.391796000000003,-97.72147700000001,78758
Braker/Seton Center,30.400365,-97.742281,78759
10300 Metric/Energy,30.382764,-97.714259,78758
10301 Metric/Energy,30.382694,-97.714054,78758
510 Bouldin/Barton Springs,30.259103000000003,-97.753844,78704
1662 Rutland/Mountain Quail,30.374452,-97.711799,78758
1622 Rutland/Mountain Quail,30.372478000000005,-97.711969,78758
Rutland/Quail Valley,30.376082,-97.710918,78758
1649 Rutland/Quail Valley,30.374408000000003,-97.71203,78758
Metric/Running Bird,30.411624,-97.69161,78758
12623 Metric/Scofield,30.414986,-97.688459,78727
12525 Metric/Parmer,30.413731,-97.690113,78727
Crystalbrook/Loyola,30.303295000000002,-97.653761,78724
7305 Crystalbrook/Ute,30.311071000000002,-97.650894,78724
Manor/Wheeless,30.307813,-97.6778,78723
5600 Manor/Overbrook,30.30353,-97.68252199999999,78723
5200 Manor/Westminster,30.29973,-97.68621999999999,78723
5211 Manor/Westminster,30.29982,-97.68598,78723
2801 Wells Branch/Double File,30.441506,-97.68997900000001,78728
2300 Wells Branch/Merrilltown,30.439293,-97.68557,78728
2301 Wells Branch/Merrilltown,30.438537,-97.68539200000001,78728
2112 Wells Branch/Surrender,30.436622999999997,-97.68360899999999,78728
2107 Wells Branch/Renaissance,30.436412,-97.683828,78728
1900 Wells Branch/Alex,30.434836999999998,-97.67915699999999,78728
13510 Metric/Howard,30.424487,-97.679624,78727
13200 Metric/Chasewood,30.421944,-97.68304300000001,78727
13501 Metric/Chasewood,30.424288,-97.679467,78727
12622 Metric/Scofield,30.415167999999998,-97.688677,78727
2869 Lamar/29th,30.298015999999997,-97.748412,78705
Rosedale Station (NB),30.308217,-97.741034,78756
Rosedale Station (SB),30.308073999999998,-97.74136999999999,78756
Metric/Lamplight Village,30.4105,-97.69554000000001,78758
Quail Valley/Rutland,30.377422999999997,-97.709544,78758
Jasper/Lake Austin,30.287732000000002,-97.780403,78703
Amherst/Parmer,30.424353000000004,-97.713654,78727
12400 Amherst/Adelphi,30.421212,-97.71596,78727
12401 Amherst/Adelphi,30.42131,-97.71561,78727
12200 Amherst/Mosley,30.417718,-97.718153,78727
12209 Amherst/Dugan,30.417825,-97.717878,78759
Braker/Mopac NE Corner,30.395374,-97.731553,78759
Lamar/Caddo,30.385845,-97.684238,78753
9200 South 1st/Island Oak,30.157840999999998,-97.800157,78748
9201 S 1st/Slaughter,30.171737,-97.800185,78748
9000 S 1st/Slaughter,30.173319,-97.79903,78748
507 45th/Duval,30.306866999999997,-97.72415699999999,78751
500 45th/Duval,30.307024,-97.724177,78751
45th/Avenue F,30.3082,-97.727325,78751
20201 Dawn/Lohman Ford,30.454587,-97.980005,78645
Bronco/1st,30.47447,-97.97358,78645
Bronco/Dodge Trace,30.479306,-97.974374,78645
Bar K Ranch/Coyote,30.474413000000002,-97.989681,78645
21459 Coyote/Camstock Cove,30.469920000000002,-97.98794000000001,78645
21475 Coyote/Camstock Cove,30.4726,-97.98673000000001,78645
20204 Dawn/Lohman Ford,30.454746000000004,-97.980364,78645
5701 Johnny Morris/FM 969,30.292628999999998,-97.653013,78724
6403 Johnny Morris/FM 969,30.297442999999998,-97.649934,78724
6402 Johnny Morris/Loyola,30.29748,-97.650032,78724
5800 Johnny Morris/Loyola,30.292869,-97.65301099999999,78724
4815 William Cannon/Meadow Lake,30.180908000000002,-97.75049399999999,78744
9700 Anderson Mill/US 183,30.448047999999996,-97.79324,78750
11807 Millwright/Missel Thrush,30.447549,-97.803914,78750
12103 Millwright/Old Stage Trail,30.452085999999998,-97.802828,78750
12221 Millwright/Wendts Way,30.455338,-97.80375,78750
10621 Lake Creek/Millwright,30.457116,-97.803597,78750
10505 Lake Creek/Hickory Stick,30.458877,-97.79905600000001,78750
10504 Lake Creek/Mellow Meadows,30.458885,-97.79933299999999,78750
10620 Lake Creek/School House,30.456924,-97.804141,78750
12220 Millwright/Salt Mill,30.455334000000004,-97.80393199999999,78750
11808 Millwright/Anderson Mill,30.447986,-97.803995,78750
Braker/Lamar NW Corner,30.382690999999998,-97.687669,78753
Braker/Austin Park,30.385465000000003,-97.69420500000001,78758
2100 Braker/Metric,30.39276,-97.70884000000001,78758
2236 Braker/Kramer,30.391761,-97.713127,78758
2243 Braker/Kramer,30.39123,-97.71321800000001,78758
Braker/Metric (Midblock),30.391164,-97.705878,78758
1317 Braker/Parkfield,30.385618,-97.695091,78758
Braker/Plains,30.383667,-97.69066099999999,78758
2204 San Gabriel/22nd Half,30.285871999999998,-97.748124,78705
Hart/Far West,30.357421999999996,-97.754595,78731
Kermit/Lufkin,30.288949,-97.783344,78703
Lake Austin/Jasper,30.284539000000002,-97.77786400000001,78703
800 Clyde Littlefield/Red River,30.283464000000002,-97.728753,78705
North Loop/Woodview,30.325374,-97.742201,78756
North Loop/Burnet,30.325594,-97.742036,78756
Tannehill/Webberville,30.283973,-97.67134399999999,78721
6200 North Hampton/Wheeless,30.312469,-97.684539,78723
1100 Braker/Plains,30.384097999999998,-97.690954,78758
Stonelake/Great Hills,30.394136,-97.73962,78759
325 Riverside/Newning,30.253590000000003,-97.743972,78704
116 Dean Keeton/University,30.289717,-97.73879699999999,78705
516 Pleasant Valley/Lakeshore,30.246246000000003,-97.714907,78741
301 Dean Keeton/San Jacinto,30.289237,-97.73536700000001,78705
23rd/Trinity SW Corner,30.2851,-97.733074,78705
Grove/Fairway,30.230394,-97.70616,78741
2474 SH 71/Presidential,30.212705,-97.65909,78617
5214 Menchaca/Fair Oaks,30.219433000000002,-97.79492900000001,78745
305 Huntland/Brenda,30.330724,-97.710636,78752
7101 Roland Johnson/St Johns,30.333233,-97.705842,78752
5402 Convict Hill/Beckett,30.220755,-97.858202,78749
6971 Roland Johnson/Huntland,30.33097,-97.70674100000001,78752
Northgate/Research,30.368637,-97.71763,78758
Research/Lamar,30.350323,-97.713047,78753
Elmont/Wickersham,30.238352000000003,-97.718471,78741
1515 Wickersham/Riverside,30.235709000000003,-97.71851600000001,78741
Wickersham/Riverside,30.232959,-97.720095,78741
Anken/Willow Creek,30.230869000000002,-97.728974,78741
Cameron/Clear Creek,30.341356,-97.68045,78754
Cameron/Park Center,30.338928000000003,-97.682055,78754
15th/Colorado,30.277262,-97.740316,78701
New Airport/Spirit of Texas,30.212481,-97.663827,78617
New Airport/Employee,30.212636,-97.66384000000001,78617
1120 Airport/Springdale,30.264908000000002,-97.695452,78721
St Johns/IH 35 (Midblock),30.332158000000003,-97.702924,78752
7th/Chicon,30.262602,-97.721983,78702
7th/Concho,30.26388,-97.725646,78702
4415 Blue Meadow/Deep,30.179440000000003,-97.758205,78744
1111 Braker/Tom Adams,30.373772,-97.669335,78753
3201 Govalle/Tillery,30.265835,-97.701948,78702
Hobby Horse/Gracy Farms,30.404089000000003,-97.714035,78758
Meadow Lake/Blue Meadow,30.178206,-97.754762,78744
Meadow Lake/Glade Line,30.178193,-97.754961,78744
Stassney/Meadow Crest,30.191183000000002,-97.73151999999999,78744
3113 Webberville/Govalle,30.267713,-97.707546,78702
150 6th/Congress,30.26837,-97.743649,78701
Blue Meadow/Granger,30.178217,-97.755781,78744
Burnet/Allandale (HEB),30.3344,-97.740705,78756
Burleson/Felter NW,30.197813,-97.705025,78744
23rd/Trinity NW Corner,30.285327000000002,-97.733028,78705
501 23rd/Trinity,30.285069,-97.732623,78705
601 23rd/Trinity,30.284999,-97.731804,78705
21st/Whitis,30.283826,-97.7409,78705
6500 Berkman/Wheless,30.318167,-97.690141,78723
Montopolis/Caddie,30.22735,-97.702007,78741
Norwood Park/Brettonwoods,30.338844,-97.694029,78753
Riverside Dr/Willow Creek,30.23575,-97.724953,78741
705 11th/Sabine,30.270695,-97.734076,78701
4th/Guadalupe,30.267112,-97.74719,78701
Evergreen/Pecan,30.505705,-97.912343,78645
11100 Pecan Park/Lakeline Mall,30.4727,-97.802246,78750
9700 North Lake Creek/Lakeline Mall,30.476288,-97.794455,78729
North Lamar Bay 1,30.350015999999997,-97.71195999999999,78753
North Lamar Bay 2,30.350167,-97.712099,78753
North Lamar Bay 3,30.350065999999998,-97.712111,78753
Lakeline Station Bay I,30.480421999999997,-97.786505,78729
Lakeline Station Bay H,30.480562,-97.786668,78729
Lakeline Station Bay G,30.480719,-97.786775,78729
Lakeline Station Bay F,30.480898999999997,-97.786969,78729
Lakeline Station Bay E,30.481087,-97.787116,78729
10727 Jollyville/Braker,30.400546000000002,-97.748813,78759
700 Ben White (Walmart),30.218991,-97.75529300000001,78704
Ben White/Governors Row,30.215567999999998,-97.748582,78741
200 Turk/Cullen,30.163366999999997,-97.791351,78748
Mopac/Bee Caves,30.267249,-97.77849499999999,78746
Parmer Station (NB),30.405590000000004,-97.678489,78753
12416 Lamar/Parmer,30.406533000000003,-97.678591,78753
Tech Ridge Bay H,30.418266,-97.668678,78753
Tech Ridge Bay B,30.418440000000004,-97.668279,78660
3000 Wells Branch/Tandem,30.441492999999998,-97.69260799999999,78728
3001 Wells Branch/Summit,30.441209999999998,-97.692441,78728
Tech Ridge Bay J,30.418160999999998,-97.667996,78660
Parmer Station (SB),30.410119,-97.678043,78727
Tech Ridge Bay G,30.418296,-97.668868,78753
Hancock Center,30.300218,-97.720574,78751
Capital Plaza,30.315894,-97.706435,78723
Camino La Costa/Calidad,30.324372999999998,-97.696676,78752
1443 Coronado Hills/Cameron,30.327914,-97.68894,78752
Stassney/Birch Creek,30.191363,-97.734842,78744
Research/Seton Center,30.404484999999998,-97.744959,78759
Tech Ridge Bay E,30.418565,-97.669112,78753
Tech Ridge Bay F,30.418325,-97.66906999999999,78753
Tech Ridge Bay I,30.418198999999998,-97.668243,78660
3301 Wells Branch/Howard,30.440103999999998,-97.695268,78728
8201 Congress/Foremost,30.176243,-97.784118,78745
8200 Congress/Foremost,30.176853,-97.78417900000001,78745
6811 Congress/Clearday,30.190842,-97.77956800000001,78745
7309 Congress/Dittmar,30.186,-97.78110500000001,78745
7310 Congress/Dittmar,30.185789,-97.781306,78745
Fiesta (3909 S IH35/38th Half),30.295825,-97.717787,78722
Anderson/Cameron,30.334092,-97.68830600000001,78753
Lamar/Howard,30.41672,-97.67625699999999,78727
Thompkins/Trotwood,30.387388,-97.66119599999999,78753
Thompkins/Larkins,30.383411,-97.66271,78753
11816 Shropshire/Rotherham,30.378360999999998,-97.659936,78753
1120 Braker/January,30.37371,-97.66846,78753
Braker/Wedgewood,30.375894,-97.67318399999999,78753
12600 Tech Ridge/Parmer,30.400782,-97.658737,78753
12500 Tech Ridge/Canyon Ridge,30.398943,-97.663278,78753
12501 Tech Ridge/Canyon Ridge,30.398589,-97.662869,78753
12601 Tech Ridge/Parmer,30.399775,-97.65916,78753
13201 McCallen/Parmer,30.411846999999998,-97.663686,78753
Canyon Ridge/Tech Ridge,30.398148,-97.66904,78753
Canyon Ridge/Yager,30.398734,-97.668725,78753
3300 Wells Branch/Howard,30.440229,-97.69560200000001,78728
1831 Wells Branch/Thermal,30.434587,-97.678139,78728
1101 Howard/Center Line,30.42281,-97.668272,78660
Lamar/Walnut Creek Park,30.398789,-97.67954499999999,78753
12100 Lamar/Oakbrook,30.393252,-97.681428,78753
12001 Lamar/Oakbrook,30.393627000000002,-97.68100600000001,78753
West 38th Station (SB),30.304405,-97.74159399999999,78705
38th/Guadalupe,30.303402000000002,-97.739012,78705
West 38th Station (NB),30.304699,-97.741778,78705
38th/Ronson,30.303401,-97.739461,78705
Guadalupe/27th,30.293051000000002,-97.74157,78705
2911 Congress/La Vista,30.232756,-97.758147,78704
Metric/Gracy Farms,30.397885,-97.70486600000001,78758
31st Street Station (SB),30.298026,-97.74126700000001,78705
5310 Congress/Mockingbird,30.207662,-97.773684,78745
SE Corner Road A/Road B,30.391468,-97.72598,78758
Airport/56th,30.317870000000003,-97.71336,78751
Nueces/27th,30.291657,-97.742835,78705
1000 Howard/Center Line,30.422653999999998,-97.667176,78660
6502 Bluff Springs/William Cannon,30.189946999999997,-97.767587,78744
Cullen/Slaughter,30.166936,-97.790926,78748
San Jacinto/23rd (Midblock),30.286032000000002,-97.73343299999999,78705
404 Slaughter/Francia,30.169431,-97.796231,78748
5100 William Cannon/Pleasant Valley,30.180326,-97.748355,78744
Leander Station Bay C,30.586612,-97.855468,78641
Leander Station Bay D,30.586407,-97.855296,78641
2421 Rosewood/Bedford,30.272209000000004,-97.70819,78702
815 Koenig/Lamar,30.326319,-97.72697099999999,78752
810 45th/Red River,30.305166999999997,-97.720184,78751
907 Lamar/Treadwell,30.256548,-97.761038,78704
5201 William Cannon/Pleasant Valley,30.179893,-97.747991,78744
Hyde Park Station (SB),30.303573999999998,-97.737748,78751
9100 Georgian/Fawnridge,30.358478,-97.69499,78753
35th/Oakmont,30.308346999999998,-97.754037,78703
11125 Pecan Park/Lakeline Mall,30.472972,-97.802673,78750
Lakeline/North Lake Creek,30.480140999999996,-97.797375,78717
Airport/53rd,30.314086,-97.715128,78751
Slaughter/Simonetti,30.174173,-97.804467,78748
Balcones/Hart,30.342397,-97.754052,78731
601 Lamar/6th,30.272190000000002,-97.753539,78703
5408 Loyola/Ed Bluestein,30.303092,-97.66195,78724
58 Waller/Holly,30.256065999999997,-97.73446899999999,78702
11020 Lakeline Mall/Pecan Park,30.472378000000003,-97.801255,78750
Research/Riata Trace,30.425928999999996,-97.75164000000001,78727
Riverside/Metro Center,30.216684000000004,-97.689637,78744
Airport/38th,30.289096999999998,-97.707009,78723
305 Dean Keeton/San Jacinto,30.28922,-97.735182,78705
12430 Metric/Parmer,30.412277000000003,-97.691362,78758
9302 Lamar/Rundberg,30.361758000000002,-97.697927,78753
1113 Rutherford/Furness,30.340453999999998,-97.690058,78753
1112 Rutherford/Furness,30.34058,-97.68993499999999,78753
Lamar/West Gate,30.232283000000002,-97.80455500000001,78735
Braker/Mopac SW Corner,30.396411999999998,-97.734329,78759
51st/Lancaster,30.308232,-97.707768,78723
Mabel Davis Park,30.220006,-97.74296600000001,78741
1404 Fort Branch/Delano,30.278343,-97.680174,78721
2810 Oak Springs/Webberville,30.272939,-97.70225,78702
Govalle/Springdale,30.264033,-97.69678499999999,78702
703 Montopolis/Ponca,30.237459,-97.695289,78741
Riverside/Palma Verde,30.217039,-97.685245,78744
8400 Menchaca/Keepsake,30.188239000000003,-97.815012,78745
8204 West Gate/Linnet,30.196581,-97.829043,78745
8007 West Gate/Ranch,30.198683000000003,-97.826885,78745
7408 West Gate/Grennock,30.201795,-97.81873,78745
3701 Menchaca/Valley View,30.236838,-97.78376899999999,78704
Lancaster/Barbara Jordan,30.305736,-97.70751700000001,78723
4826 Mueller/Philomena,30.302219,-97.70522700000001,78722
Philomena/James Wheat,30.302188,-97.707735,78722
727 Stassney/Nancy,30.209059000000003,-97.784284,78745
4917 Congress/Ramble,30.212115,-97.770916,78745
4800 Convict Hill/Brush Country,30.217489,-97.849946,78749
2200 Martin Luther King/Coleto,30.280356,-97.71821700000001,78722
5401 Airport/53rd Half,30.316556,-97.71378100000001,78751
5214 Duval/53rd,30.316257,-97.71852,78751
904 11th/Branch,30.269995,-97.731193,78702
Seaholm Station (NB),30.265065000000003,-97.750824,78701
714 6th/West,30.270315999999998,-97.75049,78701
1120 St Johns/Grand Canyon,30.32838,-97.694615,78752
7537 Cameron/Coronado Hills,30.330223999999998,-97.688342,78752
1309 Anderson/Lazy,30.350746,-97.71972,78757
6903 Airport/Kenniston,30.336071999999998,-97.717896,78752
Airport/Guadalupe,30.333154999999998,-97.716673,78752
10112 Lake Creek/Pecan Park,30.464031,-97.78922299999999,78729
9701 Anderson Mill/US 183,30.447933000000003,-97.793006,78750
Rundberg/North Plaza,30.356717,-97.685632,78753
9813 Lamar/Longspur,30.368161999999998,-97.693983,78753
11900 Lamar/Little Oak,30.389618,-97.682674,78753
Rutland/Ledgewood,30.375881,-97.710842,78758
13207 Metric/Staton,30.421335,-97.683113,78727
13621 Metric/Howard,30.426270000000002,-97.676859,78727
13620 Metric/Howard,30.426334000000004,-97.677159,78727
203 Dean Keeton/Whitis,30.289553,-97.739586,78705
13200 McCallen/Center Ridge,30.411844,-97.663981,78753
Downtown Station,30.264458,-97.737173,78701
Plaza Saltillo Station,30.262241999999997,-97.72757800000001,78702
M L King Jr Station,30.279818,-97.70903100000001,78702
Highland Station,30.328601000000003,-97.71620300000001,78752
Crestview Station,30.338448,-97.719656,78757
Kramer Station,30.392785999999997,-97.7164,78758
Howard Station,30.43999,-97.701734,78727
Lakeline Station,30.48103,-97.78654300000001,78729
Leander Station,30.586401000000002,-97.855735,78641
2630 Speedway/27th,30.291209999999996,-97.736689,78705
South Congress Bay B,30.222917,-97.766932,78704
South Congress Bay C,30.223084000000004,-97.766853,78704
South Congress Bay E,30.223436,-97.766645,78704
South Congress Bay I,30.223212,-97.766137,78704
South Congress Station Bay J,30.222941,-97.76628000000001,78704
South Congress Station Bay K,30.222718,-97.766459,78704
1805 Riverside/Parker,30.242658000000002,-97.729061,78741
10503 Lamar/Meadows,30.374311,-97.690809,78753
Loyola/Johnny Morris NW Corner,30.30163,-97.65090699999999,78724
605 15th/Rio Grande,30.278652,-97.745979,78701
1215 Airport/12th,30.277589000000003,-97.70065699999999,78721
1181 Airport/Oak Springs,30.275409999999997,-97.698904,78721
3400 Red River/Harris,30.293324,-97.725492,78705
3520 Martin Luther King/EM Franklin,30.283766999999997,-97.696791,78723
1820 Ohlen/Renton,30.361169,-97.723184,78757
12016 Amherst/Eton,30.413598999999998,-97.720831,78759
2415 Kramer/Brockton,30.392965000000004,-97.715786,78758
Colony Loop/Shannon,30.298856,-97.641267,78724
7309 Ritchie/Colony Park,30.305497999999996,-97.639174,78724
6063 US 290/Old Fredericksburg,30.234925,-97.85363000000001,78749
MLK Station Stop 1,30.280159,-97.70921899999999,78702
7900 Riverside/Hoeke,30.215795,-97.68871800000001,78744
Palma Verde/Ben White,30.219121,-97.68783,78744
3508 Eskew/Leafield,30.203863000000002,-97.838309,78749
6413 Airport Blvd (Highland Mall),30.328657,-97.715763,78752
6402 Airport Blvd (Highland Mall),30.328339,-97.716081,78752
7072 Easy Wind/St Johns,30.338721000000003,-97.719548,78757
717 St Johns/Lamar,30.339109000000004,-97.717454,78752
Crestview Station (SB),30.337840999999997,-97.719048,78757
Howard Station Bus Stop,30.439971999999997,-97.70124,78727
4005 Banister/Summer Oaks,30.229794000000002,-97.778143,78704
1601 7th/Comal,30.263763,-97.725888,78702
408 Rundberg/North Creek,30.359515999999996,-97.690554,78753
1215 51st/Cameron,30.308132,-97.708046,78723
12026 Metric/Bittern,30.403297,-97.70024599999999,78758
12029 Metric/Bittern,30.403381,-97.699617,78758
3107 Manor/Airport,30.286352,-97.705525,78723
3219 Manor/Tillery,30.286817,-97.70273399999999,78723
Del Valle ISD,30.174865999999998,-97.610837,78617
205 Slaughter/SP Back Loop,30.167663,-97.793747,78748
651 Martin Luther King Jr/Red River,30.278688,-97.731471,78701
5789 Airport/Koenig,30.321647,-97.71395,78752
2629 Lake Austin/Exposition,30.282566999999997,-97.776462,78703
1621 Rosewood/Lawson,30.269218,-97.721609,78702
4907 1st/Heartwood,30.214745,-97.776962,78745
421 Cesar Chavez/Trinity,30.262213,-97.740639,78701
2819 Guadalupe/29th,30.29474,-97.742407,78705
906 Lamar/Treadwell,30.256342,-97.761433,78704
4705 Heflin/Springdale,30.285183,-97.681314,78721
1913 Webberville/Stone Gate,30.283009999999997,-97.674479,78721
5508 Martin Luther King Jr/Hilldale,30.286728999999998,-97.671079,78723
5304 Martin Luther King Jr/Oldfort Hill,30.286744,-97.674512,78723
5107 Heflin/Webberville,30.28262,-97.676905,78721
Tannehill/Martin Luther King,30.286011,-97.66951800000001,78721
6500 Loyola/Johnny Morris,30.300569,-97.64862600000001,78724
6505 Loyola/Johnny Morris,30.300175,-97.648393,78724
Research/Georgian,30.344432,-97.70558299999999,78753
Research/Northcrest,30.343391999999998,-97.705027,78753
13175 Pond Springs/Turtle Rock,30.444876,-97.777674,78729
13050 Pond Springs/Hunters Chase,30.441581,-97.773724,78729
10818 Lakeline Mall/Lake Creek,30.474728000000002,-97.795902,78729
Lakeline/US 183,30.480007,-97.800186,78750
620 Radam/James Casey,30.225294,-97.773151,78745
1512 Howard/Metric,30.426226,-97.67582900000001,78727
1821 Ohlen/Renton,30.360919,-97.72349399999999,78757
2000 Woodward/Ben White,30.217996000000003,-97.743796,78741
1719 Aldrich/Mueller,30.297877000000003,-97.707818,78722
1714 Aldrich/Mueller,30.298134,-97.707679,78722
Research/Mc Neil,30.434390999999998,-97.768725,78729
9422 Anderson Mill/US 183,30.449416999999997,-97.787707,78729
9514 Anderson Mill/US 183,30.449534999999997,-97.788219,78729
137 Oltorf/Euclid (Saint Ignatius),30.240123999999998,-97.75551,78704
9639 Metric/Rundberg,30.376782000000002,-97.71704799999999,78758
9540 Metric/Rundberg,30.376164000000003,-97.717766,78758
2018 Rundberg/West,30.373340000000002,-97.71822399999999,78758
1933 Rundberg/West,30.373053999999996,-97.718101,78758
1806 Rundberg/Northgate,30.371653000000002,-97.715172,78758
1401 51st/Lancaster,30.306715000000004,-97.70506999999999,78723
5012 Airport/51st,30.311595,-97.715502,78751
SH 95/Main,30.357253000000004,-97.38209499999999,78621
ACC Cypress Creek,30.479477000000003,-97.834422,78613
7944 Salt Springs/Roseborough,30.160958,-97.744331,78747
8022 Thaxton/Running Water,30.157548,-97.742243,78747
6501 Alum Rock/Fall Meadow,30.155447,-97.74224,78747
8213 Panadero/Alum Rock,30.157066999999998,-97.743627,78747
1626 William Cannon/Bluff Springs,30.189223,-97.768461,78744
6625 Bluff Springs/William Cannon,30.187849,-97.767957,78744
11928 Metric/Sunhillow,30.40113,-97.702464,78758
1701 Briarcliff/Berkman (Midblock),30.313677000000002,-97.691829,78723
525 Ben White/Terry O,30.219246000000002,-97.757736,78704
4910 Freidrich/Teri,30.204578,-97.753199,78744
2230 Stassney/Dove,30.193336,-97.753967,78744
Braker/Road A (UT-PRC),30.392360999999998,-97.725994,78758
10401 Burnet/Mc Hale,30.387502,-97.72293499999999,78758
2140 Allandale/Wynona,30.33516,-97.741613,78757
Mc Kinney Falls/Burleson,30.192301,-97.698227,78744
3450 Lake Austin/Lufkin,30.288533,-97.780899,78703
UT Research Campus Station (NB),30.388232000000002,-97.727049,78758
5902 Riverside/Grove,30.2273,-97.708137,78741
12425 Lamplight Village/Parmer,30.413849,-97.696742,78758
6310 Burnet/White Horse,30.337991,-97.739414,78757
10700 Metric/Donley,30.386819,-97.711534,78758
7401 S 1st/Elderberry,30.187782000000002,-97.79050500000001,78745
6107 Hogan/Montopolis,30.235551,-97.699597,78741
6806 Burleson/Smith School,30.201667999999998,-97.709615,78744
3825 Lake Austin/Enfield,30.295668,-97.78385300000001,78703
2616 Stassney/West Gate,30.219023999999997,-97.806938,78745
1200 Congress/Nellie,30.252434,-97.74878000000001,78704
Justin Station (SB),30.345716999999997,-97.73751800000001,78757
7212 Burnet/Greenlawn,30.348757,-97.735555,78757
8003 Burnet/Ashdale,30.358603999999996,-97.73009300000001,78757
2401 12th/Pleasant Valley,30.274488,-97.71498299999999,78702
1803 Montopolis/Kasper,30.226187,-97.70255999999999,78741
702 Montopolis/Ponca,30.237009000000004,-97.695757,78741
9800 Curlew/Aftonshire,30.177943,-97.833807,78748
11609 Metric/Gold Wing,30.395747999999998,-97.705714,78758
5611 West Gate/Stassney,30.220641999999998,-97.806754,78745
3418 Enfield/Robinhood,30.294345,-97.77980500000001,78703
Braker/Mopac (Farside/Midblock),30.397553000000002,-97.73606600000001,78759
1912 William Cannon/Elm Creek (Apt),30.18828,-97.764296,78744
1901 William Cannon/Bluff Springs,30.188349,-97.76551500000001,78744
7206 Salt Springs/Orange Blossom,30.167923,-97.74004599999999,78744
11906 Stonehollow/Metric,30.401527,-97.704398,78758
1779 Wells Branch/Wells Port,30.435736,-97.67501999999999,78728
1426 Wells Branch/FM 1825,30.441366,-97.665433,78660
1425 Wells Branch/FM 1825,30.441021999999997,-97.664663,78660
1114 Wells Branch/Drusillas,30.438694,-97.65949,78660
1113 Wells Branch/Drusillas,30.437941,-97.658872,78660
1600 Heatherwilde/Wells Branch,30.432288,-97.654196,78660
501 Wells Branch/Heatherwilde,30.433412,-97.653076,78660
2551 Heatherwilde/Wild Senna,30.422415,-97.658839,78660
2600 Heatherwilde/Wild Senna,30.422265999999997,-97.659205,78660
4549 Riverside/Wickersham,30.232094,-97.719875,78741
201 W Carrie Manor/Lexington,30.339694,-97.559124,78653
Main/Depot,30.347325,-97.370389,78621
1st/FM 1626 (Akins),30.147252,-97.80319899999999,78748
1717 Pleasant Valley/Riverside,30.235778000000003,-97.721346,78741
1718 Briarcliff/Berkman,30.313990000000004,-97.69215600000001,78723
6116 Cameron/Glencrest,30.319537,-97.697311,78723
5324 Cameron/Broadmoor,30.31124,-97.70743900000001,78723
9600 Burnet/Longhorn,30.379659000000004,-97.725088,78758
Lake Creek/Hymeadow,30.463646,-97.789238,78729
2918 Martin Luther King Jr/Clifford,30.282033000000002,-97.70768000000001,78722
4404 Oltorf/Huntwick,30.226807,-97.726139,78741
Oltorf/Wickersham,30.225462,-97.724035,78741
2525 Kramer/Burnet,30.394612,-97.71926500000001,78758
Millwright/Timbercrest,30.453236999999998,-97.803326,78750
4924 Mueller/Barbara Jordan,30.303915000000003,-97.704151,78722
4300 Airport/Wilshire,30.297973,-97.709321,78722
SH 71/Cheviot (EB),30.203346999999997,-97.641677,78617
8208 Alum Rock/Broad Brook,30.154079,-97.736716,78747
2832 Martin Luther King Jr/Alexander,30.281684000000002,-97.70989200000001,78722
2833 Martin Luther King Jr/Alexander,30.281547999999997,-97.709813,78702
Del Valle ISD (Alt School),30.175917,-97.612199,78617
219 11th/San Jacinto,30.272291999999997,-97.73905400000001,78701
11101 Lakeline/North Lake Creek,30.479846000000002,-97.79749,78717
7500 Manor/Pecan Brook,30.319038,-97.660988,78724
8408 Tuscany/US 290,30.330721999999998,-97.659482,78754
8407 Tuscany/US 290,30.330713,-97.65973000000001,78754
Exchange/Tuscany,30.337281,-97.662047,78754
8009 Exchange/Tuscany,30.337487,-97.662196,78754
8073 Exchange/Cross Park,30.33016,-97.66676899999999,78754
8073 Exchange/Cross Park,30.330305,-97.66697099999999,78754
8124 Exchange/Interparke,30.330492,-97.67178100000001,78754
Exchange/Interparke,30.330534000000004,-97.672337,78754
2202 Forbes/Cross Park,30.335191,-97.673447,78754
2205 Forbes/Cross Park,30.335264000000002,-97.673676,78754
10000 Metric/Rutland,30.38015,-97.716413,78758
10001 Metric/Rutland,30.380334,-97.716008,78758
2208 Lake Austin/Upson,30.277571000000002,-97.771314,78703
2530 Lake Austin/Hearn,30.279419,-97.774048,78703
4701 Stassney/Pleasant Valley,30.193890000000003,-97.743863,78744
4604 Stassney/Pleasant Valley,30.194088,-97.744476,78744
5301 Stassney/Nuckols,30.192738000000002,-97.738231,78744
5200 Stassney/Nuckols,30.193201000000002,-97.73867299999999,78744
5901 Stassney/Teri,30.191093,-97.731222,78744
3712 Montopolis/Burleson,30.205063,-97.716751,78744
3577 Montopolis/Burleson,30.206201,-97.716307,78744
3120 Montopolis/Ben White,30.210442999999998,-97.71330999999999,78744
3121 Montopolis/Ben White,30.210671,-97.71346700000001,78744
8800 West Gate/Davis,30.191273,-97.833432,78745
West Gate/Davis,30.190772999999997,-97.833402,78745
West Gate/Cohoba,30.187371999999996,-97.836128,78748
West Gate/Cohoba,30.187388000000002,-97.83584499999999,78748
2908 Slaughter/Lindshire,30.178172999999997,-97.83841899999999,78748
West Gate/Aftonshire,30.18003,-97.84044499999999,78748
Metropolis/Veterans Clinic,30.207627000000002,-97.690495,78744
Esperanza Crossing/Domain,30.39988,-97.724385,78759
6705 Crystalbrook/Loyola (Park),30.303303000000003,-97.65354,78724
3500 Loyola/Manor,30.310494,-97.667452,78723
6713 Manor/Loyola,30.310484000000002,-97.666576,78723
Northcross Station (SB),30.354217,-97.732117,78757
7719 Northcross/Foster,30.354986,-97.73617,78757
2535 Anderson/Northcross,30.357183000000003,-97.733456,78757
2711 Anderson/Northcross,30.358707,-97.736521,78757
2714 Foster/Northcross,30.357211,-97.737209,78757
Chinatown Station (SB),30.380367,-97.687401,78753
Masterson Station (SB),30.370933,-97.69273299999999,78753
North Lamar Station,30.349326,-97.711685,78753
Crestview Station (NB),30.336928000000004,-97.71927,78752
Brentwood Station (SB),30.326842,-97.725899,78752
Brentwood Station (NB),30.326309000000002,-97.725951,78752
UT Dean Keeton Station (SB),30.291145,-97.741349,78705
UT Dean Keeton Station (NB),30.289296999999998,-97.741364,78705
UT West Mall Station (NB),30.286127,-97.741597,78705
Museum Station (SB),30.279365999999996,-97.74254499999999,78701
Republic Square Station (SB),30.267751,-97.74685699999999,78701
Republic Square Station (NB),30.266218,-97.74605600000001,78701
St Edwards Station (NB),30.230564,-97.759511,78704
St Edwards Station (SB),30.228933,-97.760817,78704
Little Texas Station (SB),30.203384000000003,-97.77543399999999,78745
Pleasant Hill Station (SB),30.1924,-97.779234,78745
Southpark Meadows Station,30.162883,-97.790317,78744
Bluebonnet Station (NB),30.246384000000003,-97.77816700000001,78704
UT Research Campus Station (SB),30.388251,-97.727233,78758
Sunshine Station (SB),30.315717,-97.73635,78756
Bluebonnet Station (SB),30.246765999999997,-97.777874,78704
Lakeline/US 183,30.478414,-97.804675,78750
6505 Burleson (Goodwill),30.204221999999998,-97.714111,78744
5801 Slaughter/Escarpment,30.200218,-97.87602700000001,78737
5796 Slaughter/Escarpment,30.200512,-97.876375,78737
9111 Beckett/La Cresada,30.203832000000002,-97.870754,78749
8719 Beckett/Davis,30.208187,-97.869105,78749
8101 Beckett at Dick Nichols Park,30.213884000000004,-97.86389100000001,78749
8100 Beckett at Dick Nichols Park,30.213994,-97.864006,78749
7405 Beckett/Ponoma,30.219822999999998,-97.858161,78749
7406 Beckett/Ponoma,30.219825,-97.858349,78749
6911 Brush Country/One Oak,30.219895,-97.84389300000001,78749
6914 Brush Country/One Oak (Church),30.219296999999997,-97.844402,78749
6703 Brush Country/William Cannon,30.222951000000002,-97.841813,78749
6704 Brush Country/William Cannon,30.222866999999997,-97.842115,78749
Beckett/Davis,30.208176,-97.869316,78749
Beckett/La Cresada,30.203488,-97.871002,78749
10404 Escarpment/La Crosse,30.193886,-97.88555600000001,78739
10405 Escarpment/La Crosse,30.193652,-97.885356,78739
11241 Escarpment/South Bay,30.185521,-97.894708,78739
11148 Escarpment/South Bay,30.185994,-97.89469,78739
5507 Jackie Robinson/Delano,30.276475,-97.67840600000001,78721
4100 Tannehill/Samuel Huston,30.279199,-97.67415600000001,78721
4600 Tannehill/Martin Luther King,30.285718,-97.66991800000001,78721
6401 FM 969/Craigwood,30.284631,-97.660034,78724
6506 FM 969/Craigwood EB,30.284786999999998,-97.659596,78724
10001 Stonelake/Capital of Texas,30.391198,-97.739283,78759
4216 Freidrich/St Elmo,30.211274,-97.748981,78744
4300 Airport/Aldrich,30.298440000000003,-97.709294,78722
Domain Station,30.39985,-97.72045,78758
Mopac/Braker,30.393962,-97.732447,78759
8005 Georgian/Wonsley,30.345388,-97.704224,78753
Georgian/Research,30.343527,-97.705431,78753
West Gate/Piney Creek,30.193687,-97.831489,78745
4925 Berkman/Barbara Jordan,30.302546999999997,-97.699539,78722
4924 Berkman/Barbara Jordan,30.302692999999998,-97.69986800000001,78722
Del Valle High (Tennis Courts),30.177571,-97.61448100000001,78617
Wells Branch/Double File,30.441831,-97.690286,78728
1410 51st/Mueller,30.306564,-97.704286,78723
104 8th/Congress,30.269914,-97.741869,78701
216 8th/Lavaca,30.270613,-97.744215,78701
1609 Lavaca/17th (Midblock),30.278834000000003,-97.74135799999999,78701
Lavaca/3rd,30.265791999999998,-97.746213,78701
9100 US 290/Springdale,30.328995000000003,-97.656302,78724
411 8th/Trinity,30.268997,-97.738479,78701
812 Guadalupe/8th,30.271503000000003,-97.745478,78701
101 Braker/Georgian,30.379015999999996,-97.681568,78753
8425 West Gate/Cameron,30.194439000000003,-97.830919,78745
7809 West Gate/Epping,30.199081,-97.82345699999999,78745
5350 Burnet/Lawnmont,30.327516999999997,-97.73983299999999,78756
813 Lavaca/8th (Farside),30.270952,-97.744272,78701
324 Slaughter/Francia,30.169204999999998,-97.79549399999999,78748
8120 Research/Anderson,30.353034,-97.71497600000001,78758
Primose,30.319961,-97.704051,78723
2901 Montopolis/Oltorf,30.215288,-97.71025,78741
1800 Wells Branch/Wells Port,30.43565,-97.675662,78728
3900 Medical/39th,30.306917,-97.74350600000001,78756
3706 Lamar/38th,30.304705,-97.743531,78705
201 45th/Avenue F,30.308071,-97.727271,78751
12323 Pearce/Las Alas,30.171314000000002,-97.62724200000001,78617
Loyola/Wentworth,30.292958000000002,-97.631241,78724
8309 Loyola/Wentworth,30.292742999999998,-97.63131800000001,78724
6036 Elfen/Hog Eye,30.284038,-97.626837,78724
9301 Hog Eye - Community First,30.282478,-97.6232,78724
12321 Pearce/Las Alas,30.171771000000003,-97.62791899999999,78617
12905 Thome Valley/Alomar,30.172853000000003,-97.617366,78617
12904 Thome Valley/Alomar,30.172998,-97.617421,78617
Gilwell/Thome Valley,30.174468,-97.613185,78617
Gilwell/Justice,30.174761,-97.61346,78617
Gilwell/Bahan,30.175517,-97.616139,78617
Gilwell/Mathra,30.175666999999997,-97.616277,78617
112 Martin Luther King Jr/Congress,30.280545,-97.737318,78705
8004 West Gate/Ranch,30.198860999999997,-97.82689,78745
1005 Lamar/10th,30.275304,-97.75206700000001,78703
Overton Driveway/Overton Driveway,30.300421000000004,-97.636572,78724
509 Slaughter/1st,30.171585999999998,-97.798742,78748
4104 Banister/Morgan,30.228316999999997,-97.77908000000001,78704
Johnny Morris/Craybrough,30.303039000000002,-97.64631,78724
Johnny Morris/Point North,30.308047,-97.643051,78724
Daffan/Oak Crest,30.314303999999996,-97.620203,78724
Daffan/Decker,30.312258,-97.615894,78724
Eagles Landing Apt/Decker,30.307142,-97.622128,78724
Lohman Ford/FM 1431,30.474088000000002,-97.975103,78645
2219 Elmont/Town Lake,30.240462,-97.723178,78741
2300 Elmont/Violet Crown,30.240546999999996,-97.72306800000001,78741
4800 Manor/Creekwood,30.295369,-97.689006,78723
Metropolis/Metlink,30.206856,-97.695054,78744
Louis Henna/Farmers Circle,30.479488,-97.676773,78728
Parker Dr/Jarrett Way,30.476073,-97.677465,78728
Michael Angelo Way/Wadley Place,30.472379999999998,-97.67567700000001,78728
3801 Berkman/Tom Miller,30.290321999999996,-97.698669,78723
10300 Jollyville/Great Hills,30.396981,-97.750138,78759
Bagdad/Brown,30.50715,-97.681161,78664
New Life Park and Ride,30.435216999999998,-97.697402,78727
University/21st,30.283593,-97.739574,78705
Louis Henna/Walmart,30.481344,-97.67047600000001,78664
Dell Way/Greenlawn,30.485241,-97.6639,78664
Greenlawn/Dell Way,30.486009000000003,-97.661968,78664
Greenlawn/Stratford,30.4916,-97.66341800000001,78664
Greenlawn/Stratford,30.492075,-97.66384000000001,78664
Gattis School/Greenlawn,30.496084000000003,-97.666543,78664
Lawnmont/Gattis School,30.496058,-97.669247,78664
School Days/Lawnmont,30.49827,-97.669515,78664
School Days/Lawnmont,30.498146000000002,-97.669514,78664
School Days/Cushing,30.498147999999997,-97.674554,78664
School Days/Cushing,30.498022,-97.674603,78664
Cushing/Logan,30.501634000000003,-97.675042,78664
Cushing/Logan,30.501457000000002,-97.675164,78664
Mc Neil/Round Rock West,30.500668,-97.684984,78681
Round Rock West/Mc Neil,30.500964,-97.685888,78681
Round Rock West/Park,30.503531,-97.691724,78681
Round Rock West/Park,30.50364,-97.692045,78681
Lake Creek/Westwood,30.507696000000003,-97.694401,78681
Lake Creek/Westwood,30.508089000000002,-97.694652,78681
Oakwood/Round Rock Ave,30.511175,-97.710394,78681
Park Valley/Oakwood,30.512175,-97.71356,78681
8515 Loyola/Decker,30.291672,-97.628589,78724
La Frontera/Hesters Crossing,30.483887,-97.68687299999999,78681
Hesters Crossing/Kouri,30.484840000000002,-97.685282,78681
La Frontera/Sundance,30.481529,-97.685806,78681
La Frontera Blvd/Sundance Pkwy,30.481699,-97.68559,78681
Hesters Crossing/Rawhide,30.487237,-97.680809,78681
Hesters Crossing/Rawhide,30.487468,-97.67985300000001,78681
1816 Mays/Tower,30.492449,-97.675522,78664
Mays/Tower,30.49196,-97.67575,78664
Mays/Shipley,30.496413,-97.67599,78664
Mays/Mays Crossing,30.499799,-97.676214,78664
Mays/Mays Crossing,30.500578000000004,-97.676059,78664
Main/Burnet,30.509196000000003,-97.676355,78664
Main/Burnet,30.509463,-97.67599399999999,78664
Main St/Georgetown St,30.510439,-97.671924,78664
104 Georgetown/Main,30.510752,-97.671697,78664
Georgetown/Palm Valley,30.516627000000003,-97.670963,78664
Georgetown/Palm Valley,30.517453000000003,-97.670963,78664
Plateau Vista/Aw Grimes,30.521138,-97.657237,78664
Plateau Vista/Aw Grimes,30.520992,-97.65781899999999,78664
Mesa Park/Bayland,30.520856,-97.661434,78664
Mesa Park/Bayland,30.520999,-97.661556,78664
Sunrise/Greenfield,30.522608,-97.667727,78664
Sunrise/Greenfield,30.523172,-97.667891,78664
Sunrise/Wayne,30.526146,-97.667778,78664
Sunrise/Wayne,30.526518,-97.667947,78664
Sunrise/Bowman (Tiger Trail),30.529747999999998,-97.66780200000001,78664
Sunrise/Bowman (Tiger Trail),30.530673999999998,-97.668014,78664
Sunrise/Country Aire,30.534731,-97.66787,78664
Sunrise/Country Aire,30.534574,-97.668065,78664
Sunrise/Old Settlers,30.537554999999998,-97.668187,78664
Sunrise/Old Settlers,30.53805,-97.668019,78664
Sunrise/Double File,30.541190999999998,-97.670999,78665
Sunrise/Double File,30.541036,-97.671114,78665
Sunrise/Eagles Nest,30.552160999999998,-97.676562,78665
Sunrise/Eagles Nest,30.552211,-97.676815,78665
Sunrise/Hidden Valley,30.55775,-97.678726,78665
Sunrise/Hidden Valley,30.558732,-97.679367,78665
Mays/Teravista,30.56808,-97.686785,78664
N Mays St/Teravista Pkwy,30.568408,-97.686563,78665
N Mays/University,30.561458000000002,-97.687175,78665
N Mays St/University,30.561527,-97.686898,78665
University/Teravista Club,30.565842,-97.669101,78665
University/Teravista Club,30.565966999999997,-97.669358,78665
University/Sandy Brook,30.567009000000002,-97.665125,78665
University/Sandy Brook,30.567373999999997,-97.664627,78665
College Park/University,30.566885,-97.658493,78665
ACC - Round Rock,30.562381,-97.65645699999999,78665
2800 La Frontera/Louis Henna,30.478191,-97.685344,78681
La Frontera/Louis Henna,30.477587,-97.685244,78728
Greenlawn/Parkside,30.497075,-97.665437,78664
1766 71/Thornberry,30.219402000000002,-97.670379,78617
504 Campbell/5th,30.275026,-97.764825,78703
5302 Duval/53rd,30.316511,-97.718524,78751
1300 Mearns Meadow/Parkfield,30.371787,-97.702814,78758
1225 Mearns Meadow/Parkfield,30.371871000000002,-97.70308100000001,78758
10014 Mountain Quail/Mearns Meadow,30.375847999999998,-97.705196,78758
10001 Mountain Quail/Oak Hollow,30.375732,-97.70597099999999,78758
9507 Mountain Quail/Rutland,30.371326,-97.709486,78758
9512 Mountain Quail/Rutland,30.371315000000003,-97.709301,78758
1107 Mearns Meadow/Quail,30.369771000000004,-97.700627,78758
1106 Mearns Meadow/Quail,30.369664,-97.700786,78758
1020 Mearns Meadow/Rutland,30.366753999999997,-97.70087,78758
3513 Cesar Chavez/Springdale,30.252034000000002,-97.7047,78702
3069 Cesar Chavez/Tillery,30.251738,-97.70859899999999,78702
2719 Cesar Chavez/Pleasant Valley,30.253004999999998,-97.71258399999999,78702
2723 Cesar Chavez/Pleasant Valley,30.252964000000002,-97.71300500000001,78702
2411 Cesar Chavez/Pedernales,30.254572999999997,-97.717283,78702
2504 Cesar Chavez/Pedernales,30.254208000000002,-97.716515,78702
2111 Cesar Chavez/Robert T Martinez Jr,30.255752,-97.720588,78702
2204 Cesar Chavez/Robert T Martinez Jr,30.25572,-97.720807,78702
1801 Cesar Chavez/Chicon,30.257268,-97.724841,78702
1906 Cesar Chavez/Chicon,30.256843,-97.724082,78702
203 Cesar Chavez/Colorado,30.263920000000002,-97.74614,78701
321 Nueces/3rd,30.267104999999997,-97.749241,78701
467 38th/Guadalupe,30.302273,-97.73745,78705
104 38th/Speedway,30.300733,-97.733816,78751
101 38th/Speedway,30.300390999999998,-97.73340400000001,78705
413 38th/Duval,30.298718,-97.72958299999999,78751
416 38th/Duval,30.298510999999998,-97.729686,78705
813 38th Half/Red River,30.296535,-97.723448,78751
814 38th Half/Red River,30.296360999999997,-97.723433,78751
1612 38th Half/Cherrywood,30.291760999999997,-97.713782,78722
1801 38th Half/Brookview,30.29042,-97.71064100000001,78722
1827 38th Half/Airport,30.289240000000003,-97.707815,78722
3504 Manor/Greenwood,30.288223,-97.70004899999999,78723
1906 38th Half/Airport,30.289159,-97.70670799999999,78723
3803 Berkman/Tom Miller,30.290214000000002,-97.69901899999999,78723
4310 Berkman/Simond,30.296343,-97.700088,78722
4307 Berkman/Simond,30.296149,-97.700385,78722
5304 Berkman/Westmoor,30.306662,-97.69704399999999,78723
5305 Berkman/Broadmoor,30.306735999999997,-97.697201,78723
4281 51st/Springdale,30.293984000000002,-97.678299,78723
4918 Springdale/51st,30.293146000000004,-97.67813000000001,78723
3105 51st/Pecan Springs,30.295788,-97.682118,78723
2785 51st/Manor,30.298023999999998,-97.686908,78723
2760 51st/Manor,30.298344,-97.687272,78723
1828 51st/HEB,30.302821,-97.698114,78722
467 St Johns/Duval,30.334121999999997,-97.706753,78752
576 St Johns/Roland Johnson,30.333820000000003,-97.706498,78752
4509 Teri/Pleasant Valley,30.197276000000002,-97.744457,78744
1115 45th/Bellvue,30.314514000000003,-97.739579,78756
4512 Teri/Pleasant Valley,30.197004999999997,-97.744449,78744
2332 Teri/Palo Blanco,30.198713,-97.74744399999999,78744
2303 Teri/Spruce,30.200206,-97.748981,78744
115 7th/Colorado,30.269174,-97.743476,78701
805 Trinity/8th,30.269215999999997,-97.738446,78701
5976 290 Hwy/Harper Park,30.235923,-97.850974,78735
5411 290 Hwy/Monterey Oaks,30.236059,-97.83851700000001,78749
5107 290 Hwy/Staggerbrush,30.235684999999997,-97.82848800000001,78749
128 Slaughter/35,30.166826,-97.784071,78744
5504 290 Hwy/Industrial Oaks,30.237159000000002,-97.84098900000001,78735
149 Slaughter/35,30.167111,-97.783798,78744
130 Slaughter/Congress,30.166994,-97.789102,78748
626 Slaughter/Narrow Glen,30.162931,-97.778341,78744
515 Slaughter/Narrow Glen,30.164163000000002,-97.77848399999999,78744
732 Slaughter/E Slaughter To Brandt,30.160353999999998,-97.776979,78744
729 Slaughter/E Slaughter To Brandt,30.160628000000003,-97.776726,78744
132 Slaughter/Congress,30.167294000000002,-97.789084,78745
102 Chicon/Cesar Chavez,30.257258,-97.724661,78702
107 Chicon/Cesar Chavez,30.257488000000002,-97.72439399999999,78702
4804 Mueller/Philomena,30.301239000000002,-97.70562,78722
3010 Slaughter/West Gate,30.179113,-97.84099499999999,78748
1716 Barbara Jordan/Berkman,30.302660999999997,-97.700391,78722
4121 Red River/Park,30.301232000000002,-97.72155,78751
4202 Red River/Park,30.301617999999998,-97.721598,78751
8630 Vertex/Cattle Baron,30.156565999999998,-97.752831,78747
8707 Vertex/Cattle Baron,30.155931,-97.753078,78747
4923 Airport/50th,30.31092,-97.715345,78751
1818 51st/Bartholomew Pool,30.303535999999998,-97.698581,78722
309 San Antonio/4th,30.267071,-97.748099,78701
1423 St Johns/Cameron,30.325707,-97.691802,78752
Fairfield Station (NB),30.355674,-97.702242,78753
St Elmo Station (NB),30.217776,-97.76695500000001,78745
St Elmo Station (SB),30.216701,-97.768024,78745
Broken Spoke Station (NB),30.240739,-97.78607,78704
Broken Spoke Station (SB),30.241007,-97.786179,78704
North Loop East Station (SB),30.320818,-97.729694,78751
Slaughter Station (SB),30.169621000000003,-97.787869,78745
Slaughter Station (NB),30.169960999999997,-97.78707299999999,78745
703 St Johns/Lamar,30.339309000000004,-97.717448,78752
5106 Quicksilver/Canella,30.172401,-97.752691,78744
5109 Quicksilver/Pleasant Valley,30.1722,-97.75239300000001,78744
633 Calles/Diaz,30.259543,-97.71203100000001,78702
4522 Riverside/Wickersham,30.232684000000003,-97.720706,78741
5925 Riverside/Grove,30.226740999999997,-97.70763000000001,78741
1411 Fort Branch/Meander,30.278736,-97.68032099999999,78721
303 7th/San Jacinto,30.268158000000003,-97.739822,78701
Vic Mathias/Auditorium/Temporary (SB),30.257820000000002,-97.74776700000001,78704
Westgate Transit Center - A,30.230908000000003,-97.790295,78745
Westgate Transit Center - B,30.231106,-97.79084300000001,78745
Westgate Transit Center - C,30.231153000000003,-97.791129,78745
Westgate Transit Center - E,30.231527000000003,-97.791606,78745
Westgate Transit Center - F,30.231403000000004,-97.790588,78704
608 11th/Red River,30.271094,-97.734976,78701
8473 Loyola/Decker,30.291504999999997,-97.62879000000001,78724
4338 Tannehill/Webberville,30.281843,-97.67245,78721
4301 Tannehill/Webberville,30.281392999999998,-97.672539,78721
1508 Barbara Jordan/Mueller,30.304113,-97.703462,78722
2751 Foster/Rockwood,30.357549,-97.738037,78757
603 Colorado/6th,30.268821000000003,-97.74388499999999,78701
6188 Convict Hill/Escarpment,30.225555,-97.86838,78749
6317 Convict Hill/Escarpment,30.226028000000003,-97.86895600000001,78749
6959 Convict Hill/290,30.230043,-97.87863,78749
6964 Convict Hill/290,30.230056,-97.878875,78749
609 Colorado/7th,30.269211,-97.743753,78701
5169 290 Hwy/Boston,30.237094,-97.830782,78735
5638 290 Hwy/Westcreek,30.235954,-97.84555999999999,78735
Westgate Transit Center,30.231456,-97.791271,78704
Tech Ridge Park & Ride,30.417872999999997,-97.666737,78660
Leander Park & Ride,30.587896999999998,-97.855721,78641
North Lamar Transit Center,30.349964,-97.712886,78753
Lakeline Park & Ride,30.480127000000003,-97.787784,78729
Howard Station Park & Ride,30.440562,-97.70036,78728
South Congress Transit Center,30.222490000000004,-97.766914,78745
27 Waller/Flores,30.253346,-97.735557,78702
Howard Station Bay B,30.440472999999997,-97.701695,78727
603 Slaughter/1st,30.172828999999997,-97.799722,78748
5843 Balcones/Northland,30.340402,-97.755087,78731
1509 Barbara Jordan/Mueller,30.303867999999998,-97.703474,78722
530 Shady/5th,30.252556,-97.698171,78702
5104 5th/Shady,30.252159000000002,-97.698091,78702
189 Springdale/Cesar Chavez,30.252336,-97.703929,78702
Norwood Transit Center - A,30.340202,-97.691345,78753
Norwood Transit Center - C,30.340396000000002,-97.691019,78753
Norwood Transit Center - E,30.340471,-97.690999,78753
Norwood Transit Center - F,30.340372,-97.691159,78753
Norwood Transit Center,30.340154,-97.69147199999999,78753
10099 Burnet/Mc Hale,30.385221,-97.723575,78758
2007 Pleasant Valley/Riverside,30.233492,-97.724007,78741
MLK Jr Station,30.279442,-97.709643,78702
6822 Cameron/Camino La Costa,30.323777000000003,-97.693885,78752
